City,Library,Address,Zip,Phone,State
Adams,Adams Free Library,2 North Main Street,13605,(315) 232-2265,New York
Adams Center,Adams Center Free Library,18267 State Route 177,13606,(315) 583-5501,New York
Addison,Addison Public Library,6 South Street,14801,(607) 359-3888,New York
Afton,Afton Free Library,105 A Main Street,13730,(607) 639-1212,New York
Akron,Newstead Public Library,33 Main Street,14001,(716) 542-2327,New York
Albany,Albany Public Library - Arbor Hill-West Hill Branch,148 Henry Johnson Boulevard,12210,(518) 694-0596,New York
Albany,Albany Public Library - Delaware Branch,331 Delaware Avenue,12209,(518) 463-0254,New York
Albany,Albany Public Library - John A. Howe Branch,105 Schuyler Street,12202,(518) 472-9485,New York
Albany,Albany Public Library - John J. Bach Branch,455 New Scotland Avenue,12208,(518) 482-2154,New York
Albany,Albany Public Library - Main Library,161 Washington Avenue,12210,(518) 427-4300,New York
Albany,Albany Public Library - North Albany Branch,616 North Pearl Street,12204,(518) 463-1581,New York
Albany,Albany Public Library - Pine Hills Branch,,12208,(518) 482-7911,New York
Albany,Upper Hudson Library System,28 Essex Street,12206,(518) 437-9880,New York
Albertson,Shelter Rock Public Library,165 Searingtown Road,11507,(516) 248-7363,New York
Albion,Swan Library,4 North Main Street,14411,(585) 589-4246,New York
Alden,Alden Ewell Free Library,13280 Broadway,14004,(716) 937-7082,New York
Alexandria Bay,Macsherry Library,112 Walton Street,13607,(315) 482-2241,New York
Alfred,Alfred Box Of Books Library,1 West University Street,14802,(607) 587-9290,New York
Allegany,Allegany Public Library,90 West Main Street,14706,(716) 373-1056,New York
Almond,Almond Twentieth Century Club Library,p o box d,14804,(607) 276-6311,New York
Altamont,Altamont Free Library,105 Park Street,12009,(518) 861-7239,New York
Altona,Altona Reading Center,3124 Rt. 191,12910,(518) 236-7621,New York
Amagansett,Amagansett Free Library,215 Main Street,11930,(631) 267-3810,New York
Amenia,Amenia Free Library,3309 Route 343,12501,(845) 373-8273,New York
Amherst,Audubon Branch,350 John James Audubon Parkway,14228,(716) 688-4919,New York
Amityville,Amityville Public Library,,11701,(631) 264-0567,New York
Amsterdam,Amsterdam Free Library,28 Church Street,12010,(518) 842-1080,New York
Andes,Andes Public Library,242 Main Street,13731,(845) 676-3333,New York
Andover,Andover Free Library,40 Main Street,14806,(607) 478-8442,New York
Angelica,Angelica Free Library,55 West Main Street,14709,(585) 466-7860,New York
Angola,Angola Public Library,34 North Main Street,14006,(716) 549-1271,New York
Antwerp,Crosby Public Library,59 Main Street,13608,(315) 659-8564,New York
Apalachin,Apalachin Library Association,719 Main St,13732,(607) 625-3333,New York
Arcade,Arcade Free Library,365 West Main Street,14009,(585) 492-1297,New York
Ardsley,Ardsley Public Library,9 American Legion Drive,10502,(914) 693-6636,New York
Argyle,Argyle Free Library,21 Sheridan Street,12809,(518) 638-8911,New York
Armonk,North Castle Public Library,19 Whippoorwill Road East,10504,(914) 273-3887,New York
Arverne,Queens Borough Public Library - Arverne,312 Beach 54 Street,11692,(718) 634-4784,New York
Ashville,Ashville Free Library,2200 North Maple Street,14710,(716) 763-9906,New York
Astoria,Queens Borough Public Library - Astoria,14-01 Astoria Boulevard,11102,(718) 278-2220,New York
Astoria,Queens Borough Public Library - Steinway,21-45 31 Street,11105,(718) 728-1965,New York
Athens,D.R. Evarts Library,80 Second Street,12015,(518) 945-1417,New York
Atlanta,E J Cottrell Memorial Library,30 Main Street,14808,(585) 534-5030,New York
Attica,Stevens Memorial Community Library,146 Main Street,14011,(585) 591-2733,New York
Auburn,Seymour Public Library District,176-178 Genesee Street,13021,(315) 252-2571,New York
Aurora,Aurora Free Library,370 Main Street,13026,(315) 364-8074,New York
Ausable Forks,Ausable Forks Free Library,9 Church Lane,12912,(518) 647-5596,New York
Averill Park,Sand Lake Town Library,8428 Miller Hill Road,12018,(518) 674-5050,New York
Avoca,Avoca Free Library,18 North Main Street,14809,(607) 566-9279,New York
Avon,Avon Free Library,143 Genesee Street,14414,(585) 226-8461,New York
Babylon,Babylon School District Public Library,24 South Carll Avenue,11702,(631) 669-1624,New York
Bainbridge,Bainbridge Free Library,13 North Main Street,13733,(607) 967-5305,New York
Baldwin,Baldwin Public Library,2385 Grand Avenue,11510,(516) 223-6228,New York
Baldwinsville,Baldwinsville Public Library,33 East Genesee Street,13027,(315) 635-5631,New York
Ballston Spa,Ballston Spa Public Library,21 Milton Avenue,12020,(518) 885-5022,New York
Barker,Barker Free Library,8706 Main Street,14012,(716) 795-3344,New York
Barneveld,Barneveld Free Library Association,118 Boon Street,13304,(315) 896-2096,New York
Batavia,Richmond Memorial Library,19 Ross Street,14020,(585) 343-9550,New York
Bath,Dormann Library,101 West Morris Street,14810,(607) 776-4613,New York
Bayside,Queens Borough Public Library - Bay Terrace,18-36 Bell Boulevard,11360,(718) 423-7004,New York
Bayside,Queens Borough Public Library - Bayside,214-20 Northern Boulevard,11361,(718) 229-1834,New York
Bayside,Queens Borough Public Library - Windsor Park,79-50 Bell Boulevard,11364,(718) 468-8300,New York
Bayville,Bayville Free Library,34 School Street,11709,(516) 628-2765,New York
Beacon,Howland Public Library,313 Main Street,12508,(845) 831-1134,New York
Beaver Falls,Beaver Falls Library,9607 Lewis Street,13305,(315) 346-6216,New York
Bedford,Bedford Free Library,32 Village Green,10506,(914) 234-3570,New York
Bedford Hills,Bedford Hills Free Library,26 Main Street,10507,(914) 666-6472,New York
Belfast,Belfast Public Library,75 South Main Street,14711,(585) 365-2072,New York
Bellerose,Queens Borough Public Library - Bellerose,250-06 Hillside Avenue,11426,(718) 831-8644,New York
Belleville,Belleville Free Library,8086 County Route 75,13611,(315) 846-5103,New York
Bellmore,Bellmore Memorial Library,2288 Bedford Avenue,11710,(516) 785-2990,New York
Bellport,Long Island Library Resources Council,627 N. Sunrise Service Road,11713,,New York
Bellport,Long Island Talking Book Library,627 N. Sunrise Service Road,11713,(631) 286-1600,New York
Bellport,South Country Library,22 Station Road,11713,(631) 286-0818,New York
Belmont,Free Library Of The Belmont Literary And Historical Society,2 Willets Avenue,14813,(585) 268-5308,New York
Bemus Point,Bemus Point Public Library,13 Main Street,14712,(716) 386-2274,New York
Bergen,Byron-Bergen Public Library,13 S. Lake Street,14416,(585) 494-1120,New York
Berkshire,Berkshire Free Library,12519 State Route 38,13736,(607) 657-4418,New York
Berlin,Berlin Free Town Library,47 Main Street,12022,(518) 658-2231,New York
Berne,Berne Public Library,1656 Helderberg Trail,12023,(518) 872-1246,New York
Bethpage,Bethpage Public Library,47 Powell Avenue,11714,(516) 931-3907,New York
Bethpage,Briarcliffe College Library - Bethpage,1055 Stewart Avenue,11714,(516) 918-3627,New York
Big Flats,Big Flats Library,78 Canal St.,14814,(607) 562-3300,New York
Binghamton,Broome County Public Library,185 Court Street,13901,(607) 778-6400,New York
Binghamton,Fenton Free Library,1062 Chenango Street,13901,(607) 724-8649,New York
Black River,Sally Ploof Hunter Memorial Library,101 Public Works Drive,13612,(315) 773-5163,New York
Blauvelt,Blauvelt Free Library,541 Western Highway,10913,(845) 359-2811,New York
Bliss,Eagle Free Library,3413 School Street,14024,(585) 322-7701,New York
Bloomfield,Allens Hill Free Library,3818 County Road 40,14469,(585) 229-5636,New York
Bloomfield,Bloomfield Public Library,9 Church Street,14469,(585) 657-6264,New York
Blue Point,Bayport-Blue Point Public Library,203 Blue Point Avenue,11715,(631) 363-6133,New York
Bohemia,Connetquot Public Library,760 Ocean Avenue,11716,(631) 567-5079,New York
Bolivar,Bolivar Free Library,390 Main Street,14715,(585) 928-2015,New York
Bolton Landing,Bolton Free Library,4922 Lakeshore Drive,12814,(518) 644-2233,New York
Boonville,Erwin Library Institute,,13309,(315) 942-4834,New York
Boston,Boston Free Library,9474 Boston State Road,14025,(716) 941-3516,New York
Bovina Center,Bovina Library Association,33 Maple Avenue,13740,(607) 832-4884,New York
Branchport,Modeste Bedient Memorial Library,3699 Route 54a,14418,(315) 595-2899,New York
Brant Lake,Horicon Free Public Library,6604 State Route 8,12815,(518) 494-4189,New York
Brentwood,Brentwood Public Library,34 Second Avenue,11717,(631) 273-7883,New York
Brewster,Brewster Public Library,79 Main Street,10509,(845) 279-6421,New York
Briarcliff Manor,Briarcliff Manor Public Library,1 Library Road,10510,(914) 941-7072,New York
Briarwood,Queens Borough Public Library - Briarwood,85-12 Main Street,11435,(718) 658-1680,New York
Bridgehampton,Horticultural Alliance Library,843 Sag Harbor Tpke,11932,(631) 537-2223,New York
Bridgehampton,The Hampton Library,2478 Main Street,11932,(631) 537-0015,New York
Bridgeport,Sullivan Free Library Of Bridgeport,8979 North Road,13030,(315) 633-2253,New York
Bridgewater,Bridgewater Free Library,404 Pritchard Avenue,13313,(315) 822-6475,New York
Brightwaters,Bay Shore-Brightwaters Public Library,,11718,(631) 665-4350,New York
Broad Channel,Queens Borough Public Library - Broad Channel,16-26 Cross Bay Boulevard,11693,(718) 318-4943,New York
Brockport,Seymour Library,161 East Ave,14420,(585) 637-1050,New York
Brocton,Ahira Hall Memorial Library,37 West Main Street,14716,(716) 792-9418,New York
Bronx,Allerton Library,2740 Barnes Avenue,10467,(718) 881-4240,New York
Bronx,Baychester Library,2049 Asch Loop North,10475,(718) 379-6700,New York
Bronx,Belmont Library And Enrico Fermi Cultural Center,610 E. 186th Street,10458,(718) 933-6410,New York
Bronx,Bronx Library Center,310 East Kingsbridge Road,10458,(718) 579-4244,New York
Bronx,Castle Hill Library,947 Castle Hill Avenue,10473,(718) 824-3838,New York
Bronx,City Island Library,320 City Island Avenue,10464,(718) 885-1703,New York
Bronx,Clasons Point Library,1215 Morrison Avenue,10472,(718) 842-1235,New York
Bronx,Eastchester Library,1385 East Gun Hill Road,10469,(718) 653-3292,New York
Bronx,Edenwald Library,1255 East 233rd Street,10466,(718) 798-3355,New York
Bronx,Francis Martin Library,2150 University Avenue,10453,(718) 295-5287,New York
Bronx,Grand Concourse Library,155 East 173rd Street,10457,(718) 583-6611,New York
Bronx,High Bridge Library,78 West 168th Street,10452,(718) 293-7800,New York
Bronx,Hunts Point Library,877 Southern Boulevard,10459,(718) 617-0338,New York
Bronx,Jerome Park Library,118 Eames Place,10468,(718) 549-5200,New York
Bronx,Kingsbridge Library,291 West 231st Street,10463,(718) 548-5656,New York
Bronx,Melrose Library,910 Morris Avenue,10451,(718) 588-0110,New York
Bronx,Morris Park Library,985 Morris Park Avenue,10462,(718) 931-0636,New York
Bronx,Morrisania Library,610 East 169th Street,10456,(718) 589-9268,New York
Bronx,Mosholu Library,285 East 205th Street,10467,(718) 882-8239,New York
Bronx,Mott Haven Library,321 East 140th Street,10454,(718) 665-4878,New York
Bronx,Parkchester Library,1985 Westchester Avenue,10462,(718) 829-7830,New York
Bronx,Pelham Bay Library,3060 Middletown Road,10461,(718) 792-6744,New York
Bronx,Riverdale Library,5540 Mosholu Avenue,10471,(718) 549-1212,New York
Bronx,Sedgwick Library,"1701 Martin Luther King, Jr. Blvd.",10453,(718) 731-2074,New York
Bronx,Soundview Library,660 Soundview Avenue,10473,(718) 589-0880,New York
Bronx,Spuyten Duyvil Library,650 W. 235th St.,10463,(718) 796-1202,New York
Bronx,Throgs Neck Library,3025 Cross Bronx Expressway Extension,10465,(718) 792-2612,New York
Bronx,Tremont Library,1866 Washington Avenue,10457,(718) 299-5177,New York
Bronx,Van Cortlandt Library,3874 Sedgwick Avenue,10463,(718) 543-5150,New York
Bronx,Van Nest Library,2147 Barnes Avenue,10462,(718) 829-5864,New York
Bronx,Wakefield Library,4100 Lowerre Place,10466,(718) 652-4663,New York
Bronx,West Farms Library,2085 Honeywell Avenue,10460,(718) 367-5376,New York
Bronx,Westchester Square Library,2521 Glebe Avenue,10461,(718) 863-0436,New York
Bronx,Woodlawn Heights Library,4355 Katonah Avenue,10470,(718) 519-9627,New York
Bronx,Woodstock Library,761 East 160th Street,10456,(718) 665-6255,New York
Bronxville,Bronxville Public Library,201 Pondfield Road,10708,(914) 337-7680,New York
Brookhaven,Brookhaven Free Library,273 Beaver Dam Road,11719,(631) 286-1923,New York
Brookhaven,Dowling College Library,150 Idle Hour Blvd,11769,(631) 244-3280,New York
Brooklyn,Arlington Library,203 Arlington Ave. At Warwick St.,11207,(718) 277-6105,New York
Brooklyn,Bay Ridge Library,7223 Ridge Blvd. At 73rd St.,11209,(718) 748-5709,New York
Brooklyn,Bedford Learning Center,496 Franklin Avenue,11238,(718) 623-2134,New York
Brooklyn,Bedford Library,496 Franklin Avenue,11238,(718) 623-0012,New York
Brooklyn,Borough Park Library,1265 43rd St. At 13th Ave.,11219,(718) 437-4085,New York
Brooklyn,Brighton Beach Library,16 Brighton First Rd. At Brighton Beach Ave.,11235,(718) 946-2917,New York
Brooklyn,Brooklyn Heights Library,280 Cadman Plaza West At Tillary St.,11201,(718) 623-7100,New York
Brooklyn,Brooklyn Public Library,10 Grand Army Plaza,11238,(718) 230-2403,New York
Brooklyn,Brooklyn Public Library System,,,,New York
Brooklyn,Brower Park Library,725 St. Marks Ave. At Nostrand Ave.,11216,(718) 773-7208,New York
Brooklyn,Brownsville Library,61 Glenmore Ave. At Watkins St.,11212,(718) 498-9721,New York
Brooklyn,Bushwick Library,340 Bushwick Ave. At Seigel St.,11206,(718) 602-1348,New York
Brooklyn,Business Library,280 Cadman Plaza W. At Tillary St.,11201,(718) 623-7000,New York
Brooklyn,Canarsie Library,1580 Rockaway Pkwy. At Ave. J,11236,(718) 257-6547,New York
Brooklyn,Carroll Gardens Library,396 Clinton St. Union St.,11231,(718) 596-6972,New York
Brooklyn,Central Library,10 Grand Army Plaza,11238,(718) 230-2100,New York
Brooklyn,Central Library Learning Center,,11238,(718) 230-2191,New York
Brooklyn,Clarendon Library,2035 Nostrand Ave.,11210,(718) 421-1159,New York
Brooklyn,Clinton Hill Library,380 Washington Ave. At Lafayette Ave.,11238,(718) 398-8713,New York
Brooklyn,Coney Island Learning Center,1901 Mermaid Avenue At 19th St.,11224,(718) 265-3880,New York
Brooklyn,Cortelyou Library,1305 Cortelyou Rd. At Argyle Rd.,11226,(718) 693-7763,New York
Brooklyn,Crown Heights Library,560 New York Ave. At Maple St.,11225,(718) 773-1180,New York
Brooklyn,Cypress Hills Library,1197 Sutter Ave. At Crystal St.,11208,(718) 277-6004,New York
Brooklyn,Dekalb Library,790 Bushwick Ave. At Dekalb Ave.,11221,(718) 455-3898,New York
Brooklyn,Dyker Library,8202 13th Ave. ( 82nd St.),11228,(718) 748-6261,New York
Brooklyn,East Flatbush Library,9612 Church Ave. At. Rockaway Pkwy.,11212,(718) 922-0927,New York
Brooklyn,Eastern Parkway Learning Center,1044 Eastern Parkway,11213,(718) 778-9330,New York
Brooklyn,Eastern Parkway Library,1044 Eastern Pkwy. At Schenectady Ave.,11213,(718) 953-4225,New York
Brooklyn,Flatbush Library,22 Linden Blvd. At Flatbush Ave.,11226,(718) 856-0813,New York
Brooklyn,Flatlands Library,2065 Flatbush Ave. At Ave. P,11234,(718) 253-4409,New York
Brooklyn,Fort Hamilton Library,9424 Fourth Ave.,11209,(718) 748-6919,New York
Brooklyn,Gerritsen Beach Library,2808 Gerritsen Ave. ( Bartlett Place),11229,(718) 368-1435,New York
Brooklyn,Gravesend Library,303 Ave. X At West. 2nd St.,11223,(718) 382-5792,New York
Brooklyn,Greenpoint Library,107 Norman Ave. At Leonard St.,11222,(718) 349-8504,New York
Brooklyn,Highlawn Library,1664 W. 13th St. At Kings Highway,11223,(718) 234-7208,New York
Brooklyn,Homecrest Library,2525 Coney Island Ave. At Ave. V,11223,(718) 382-5924,New York
Brooklyn,Jamaica Bay Library,9727 Seaview Ave. At E. 98th St.,11236,(718) 241-3571,New York
Brooklyn,Kensington Library,410 Ditmas Ave. Between East 4th East 5th St.,11218,(718) 435-9431,New York
Brooklyn,Kings Bay Library,3650 Nostrand Ave. (Near Ave. W),11229,(718) 368-1709,New York
Brooklyn,Kings Highway Library,2115 Ocean Ave.,11229,(718) 375-3037,New York
Brooklyn,Leonard Library,81 Devoe St. At Leonard St.,11211,(718) 486-3365,New York
Brooklyn,Macon Library,361 Lewis Ave. At Macon St.,11233,(718) 573-5606,New York
Brooklyn,Mapleton Library,1702 60th Street,11204,(718) 256-2117,New York
Brooklyn,Marcy Library,617 Dekalb Ave. At Nostrand Ave.,11216,(718) 935-0032,New York
Brooklyn,Mckinley Park Library,6802 Fort Hamilton Pkwy (At 68th St.),11219,(718) 748-8001,New York
Brooklyn,Midwood Library,975 East 16th St. At Avenue J,11230,(718) 252-0967,New York
Brooklyn,Mill Basin Library,2385 Ralph Ave (Near Ave N),11234,(718) 241-3973,New York
Brooklyn,New Lots Library,665 New Lots Ave. At Barbey St.,11207,(718) 649-0311,New York
Brooklyn,New Utrecht Library,1743 86th St. At Bay 17th St.,11214,(718) 236-4086,New York
Brooklyn,Pacific Library,25 Fourth Ave. At Pacific St.,11217,(718) 638-1531,New York
Brooklyn,Paerdegat Library,850 E. 59th St. At Paerdegat Ave. South,11234,(718) 241-3994,New York
Brooklyn,Park Slope Library,431 6th Ave. At 9th St.,11215,(718) 832-1853,New York
Brooklyn,Red Hook Library,7 Wolcott St. At Dwight St.,11231,(718) 935-0203,New York
Brooklyn,Rugby Library,1000 Utica Ave. (Near Tilden Ave.),11203,(718) 566-0054,New York
Brooklyn,Ryder Library,5902 23rd Ave. (Bet. 23rd Ave. At 59th St.),11204,(718) 331-2962,New York
Brooklyn,Saratoga Library,8 Thomas S. Boyland St. At Macon St.,11233,(718) 573-5224,New York
Brooklyn,Sheepshead Bay Library,2636 E.14th St. At Ave. Z,11235,(718) 368-1815,New York
Brooklyn,Spring Creek Library,12143 Flatlands Ave. At New Jersey Ave.,11207,(718) 257-6571,New York
Brooklyn,Stone Avenue Library,581 Mother Gaston Boulevard,11212,(718) 485-8347,New York
Brooklyn,Sunset Park Library,5108 4th Ave. At 51st St.,11220,(718) 567-2806,New York
Brooklyn,Ulmer Park Library,2602 Bath Ave At 26th Ave,11214,(718) 265-3443,New York
Brooklyn,Walt Whitman Library,93 Saint Edwards St.,11205,(718) 935-0244,New York
Brooklyn,Washington Irving Library,360 Irving Ave.,11237,(718) 628-8378,New York
Brooklyn,Williamsburgh Library,240 Division Ave. At Marcy Ave.,11211,(718) 302-3485,New York
Brooklyn,Windsor Terrace Library,160 E. 5th St. At Ft. Hamilton Pkwy.,11218,(718) 686-9707,New York
Brownville,Brownville-Glen Park Library,216 Brown Boulevard,13615,(315) 788-7889,New York
Buffalo,Buffalo Erie County Public Library System,1 Lafayette Square,14203,(716) 858-8900,New York
Buffalo,Central Library,1 Lafayette Square,14203,(716) 858-8900,New York
Buffalo,Crane Branch Library,633 Elmwood Avenue,14222,(716) 883-6651,New York
Buffalo,Dudley Branch Library,2010 South Park Avenue,14220,(716) 823-1854,New York
Buffalo,East Clinton Branch Library,1929 Clinton Street,14206,(716) 823-5626,New York
Buffalo,East Delavan Branch Library,1187 E. Delavan Avenue,14215,(716) 896-4433,New York
Buffalo,"Frank E. Merriweather, Jr. Library",1324 Jefferson Avenue,14208,(716) 883-4418,New York
Buffalo,Niagara Branch Library,280 Porter Avenue,14201,(716) 882-1537,New York
Buffalo,North Park Branch Library,975 Hertel Avenue,14216,(716) 875-3748,New York
Buffalo,Riverside Branch Library,820 Tonawanda Street,14207,(716) 875-0562,New York
Buffalo,Town Of Tonawanda Public Library Kenilworth Branch,318 Montrose Avenue,14223,(716) 834-7657,New York
Burnt Hills,Ballston Community Public Library,2 Lawmar Lane,12027,(518) 399-8174,New York
Cairo,Cairo Public Library,512 Main Street,12413,(518) 622-9864,New York
Caledonia,Caledonia Library Association,3108 Main Street,14423,(585) 538-4512,New York
Callicoon,Western Sullivan Public Library - Delaware Free Branch,45 Lower Main Street,12723,(845) 887-4040,New York
Calverton,Baiting Hollow Free Library,4 Warner Drive,11933,(631) 727-8765,New York
Cambria Heights,Queens Borough Public Library - Cambria Heights,218-13 Linden Boulevard,11411,(718) 528-3535,New York
Cambridge,Cambridge Public Library,21 West Main Street,12816,(518) 677-2443,New York
Camden,Camden Library Association,57 Second Street,13316,(315) 245-1980,New York
Camden,Osceola Public Library,2117 North Osceola Road,13316,(315) 599-7122,New York
Camillus,Maxwell Memorial Library,14 Genesee Street,13031,(315) 672-3661,New York
Canajoharie,Canajoharie Library And Art Gallery,2 Erie Boulevard,13317,(518) 673-2314,New York
Canandaigua,Bristol Library,6750 County Road 32,14424,(585) 229-5862,New York
Canandaigua,Pioneer Library System,2557 State Rt. 21,14424,(585) 394-8260,New York
Canandaigua,Wood Library Association,134 North Main Street,14424,(585) 394-1381,New York
Canaseraga,Essential Club Free Library,11 Pratt Street,14822,(607) 545-6443,New York
Canastota,Canastota Public Library,102 West Center Street,13032,(315) 697-7030,New York
Candor,Candor Free Library,2 Bank Street,13743,(607) 659-7258,New York
Canisteo,Wimodaughsian Free Library,19 West Main Street,14823,(607) 698-4445,New York
Canton,Canton Free Library,8 Park Street,13617,(315) 386-3712,New York
Cape Vincent,Cape Vincent Community Library,157 North Real Street,13618,(315) 654-2132,New York
Carmel,Reed Memorial Library,1733 Route 6,10512,(845) 225-2439,New York
Carthage,Carthage Free Library,412 Budd Street,13619,(315) 493-2620,New York
Castile,Cordelia A. Greene Library,11 South Main Street,14427,(585) 493-5466,New York
Castleton,Castleton Public Library,85 South Main Street,12033,(518) 732-0879,New York
Cato,Stewart B. Lang Memorial Library,2577 East Main Street,13033,(315) 626-2101,New York
Catskill,Catskill Public Library,1 Franklin Street,12414,(518) 943-4230,New York
Cattaraugus,Cattaraugus Free Library,21 Main Street,14719,(716) 257-9500,New York
Cazenovia,Cazenovia Public Library Society,100 Albany Street,13035,(315) 655-9322,New York
Center Moriches,Center Moriches Free Public Library,235 Main Street,11934,(631) 878-0940,New York
Centereach,Middle Country Public Library,101 Eastwood Boulevard,11720,(631) 585-9393,New York
Central Islip,Central Islip Public Library,33 Hawthorne Avenue,11722,(631) 234-9333,New York
Central Square,Central Square Library,637 South Main Street,13036,(315) 668-6104,New York
Champlain,Champlain Memorial Library,148 Elm Street,12919,(518) 298-8620,New York
Chappaqua,Chappaqua Library,195 South Greeley Avenue,10514,(914) 238-4779,New York
Chateaugay,Chateaugay Memorial Library,4 John St.,12920,(518) 497-0400,New York
Chatham,Chatham Public Library,11 Woodbridge Avenue,12037,(518) 392-3666,New York
Chaumont,Lyme Free Library,12165 Main Street,13622,(315) 649-5454,New York
Chautauqua,Smith Memorial Library,21 Miller Avenue,14722,(716) 357-6296,New York
Chazy,Chazy Public Library,9633 Route 9,12921,(518) 846-7676,New York
Cheektowaga,Reinstein Memorial Library,2580 Harlem Road,14225,(716) 892-8089,New York
Cherry Valley,Cherry Valley Memorial Library,61 Main Street,13320,(607) 264-8214,New York
Chester,Chester Public Library,1784 Kings Highway,10918,(845) 469-4252,New York
Chestertown,Town Of Chester Public Library,6307 Main St - State Route 9,12817,(518) 494-5384,New York
Chittenango,Sullivan Free Library Of Chittenango,101 Falls Boulevard,13037,(315) 687-6331,New York
Churchville,Newman Riga Library,1 Village Park,14428,(585) 293-2009,New York
Cicero,Northern Onondaga Public Library,8686 Knowledge Lane,13039,(315) 699-2534,New York
Cincinnatus,Kellogg Free Library,5681 Telephone Road Extension,13040,(607) 863-4300,New York
Clarence,Clarence Public Library,,14031,(716) 741-2650,New York
Claverack,Claverack Library,629 Rt 23b,12513,(518) 851-7120,New York
Clayton,Hawn Memorial Library,220 John Street,13624,(315) 686-3762,New York
Clayville,Clayville Library Association,2265 Oneida Street,13322,(315) 839-5893,New York
Clifton Park,Clifton-Park Halfmoon Public Library,475 Moe Road,12065,(518) 371-8622,New York
Clifton Springs,Clifton Springs Library,4 Railroad Avenue,14432,(315) 462-7371,New York
Clinton,Kirkland Town Library,55 1-2 College Street,13323,(315) 853-2038,New York
Clyde,Clyde-Savannah Public Library,204 Glasgow Street,14433,(315) 923-7767,New York
Clymer,Clymer-French Creek Free Library,564 Clymer - Sherman Road,14724,(716) 355-8823,New York
Cobleskill,The Community Library,110 Union Street,12043,(518) 234-7897,New York
Cohocton,Cohocton Public Library,15 S. Main St.,14826,(585) 384-5170,New York
Cohoes,Cohoes Public Library,169 Mohawk Street,12047,(518) 235-2570,New York
Cold Spring,Julia L. Butterfield Memorial Library,10 Morris Avenue,10516,(845) 265-3040,New York
Cold Spring Harbor,Cold Spring Harbor Laboratory Library And Archives,1 Bungtown Rd.,11724,(516) 367-6872,New York
Cold Spring Harbor,Cold Spring Harbor Village Improvement Society Library,95 Harbor Rd,11724,(631) 692-6820,New York
College Point,Queens Borough Public Library - Poppenhusen,121-23 14 Avenue,11356,(718) 359-1102,New York
Collins,Collins Public Library,2341 Main Street,14034,(716) 532-5129,New York
Colton,Hepburn Library,84 Main Street,13625,(315) 262-2310,New York
Commack,Commack Public Library District,18 Hauppauge Road,11725,(631) 499-0888,New York
Constableville,Constableville Library,3038 Main Street,13325,(315) 397-2801,New York
Cooperstown,Village Library Of Cooperstown,22 Main Street,13326,(607) 547-8344,New York
Copiague,Copiague Memorial Public Library,50 Deauville Boulevard,11726,(631) 691-1111,New York
Corfu,Corfu Free Library,7 Maple Avenue,14036,(585) 599-3321,New York
Corinth,Corinth Free Library,89 Main Street,12822,(518) 654-6913,New York
Corning,Southeast Steuben County Library,300 Civic Center Plaza Suite 101,14830,(607) 936-3713,New York
Cornwall,Cornwall Public Library,395 Hudson Street,12518,(845) 534-8282,New York
Corona,Queens Borough Public Library - Corona,38-23 104 Street,11368,(718) 426-2844,New York
Corona,Queens Borough Public Library - Langston Hughes,100-01 Northern Boulevard,11368,(718) 651-1100,New York
Corona,Queens Borough Public Library - Lefrak City,98-30 57 Avenue,11368,(718) 592-7677,New York
Cortland,Cortland Free Library,32 Church Street,13045,(607) 753-1042,New York
Coxsackie,Heermance Memorial Library,1 Ely Street,12051,(518) 731-8084,New York
Cragsmoor,Cragsmoor Free Library,355 Cragsmoor Road,12420,(845) 647-4611,New York
Cranberry Lake,Clifton Community Library,7171 State Highway 3,12927,(315) 848-3256,New York
Croghan,Croghan Free Library,9794 State Route 812,13327,(315) 346-6521,New York
Croton-On-Hudson,Croton Free Library,171 Cleveland Drive,10520,(914) 271-6612,New York
Crown Point,Hammond Library Of Crown Point,2732 Main Street,12928,(518) 597-3616,New York
Cuba,Cuba Circulating Library Association,39 East Main Street,14727,(585) 968-1668,New York
Cutchogue,Cutchogue New Suffolk Free Library,27550 Main Road,11935,(631) 734-6360,New York
Dannemora,Dannemora Free Library,1168 Cook Street,12929,(518) 492-7005,New York
Dansville,Dansville Public Library,200 Main Street,14437,(585) 335-6720,New York
Deer Park,Deer Park Public Library,44 Lake Avenue,11729,(631) 586-3000,New York
Delanson,Schenectady County Public Library - Quaker Street Branch,133 Bull St.,12053,(518) 895-2719,New York
Delevan,Delevan-Yorkshire Public Library,28 School Street,14042,(716) 492-1961,New York
Delhi,Cannon Free Library,40 Elm Street,13753,(607) 746-2662,New York
Delmar,Bethlehem Public Library,451 Delaware Avenue,12054,(518) 439-9314,New York
Depauville,Depauville Free Library,32333 County Route 179,13632,(315) 686-3299,New York
Deposit,Deposit Free Library,159 Front Street,13754,(607) 467-2577,New York
Deruyter,Deruyter Free Library,736 Utica Street,13052,(315) 852-6262,New York
Dewitt,"Dewitt Community Library Assoc., Inc",3649 Erie Blvd East,13214,(315) 446-3578,New York
Dexter,Dexter Free Library,120 East Kirby Street,13634,(315) 639-6785,New York
Diamond Point,Hillview Free Library,3717 Lake Shore Drive,12824,(518) 668-3012,New York
Dix Hills,Half Hollow Hills Community Public Library,55 Vanderbilt Parkway,11746,(631) 421-4530,New York
Dobbs Ferry,Dobbs Ferry Public Library,55 Main Street,10522,(914) 693-6614,New York
Dolgeville,Dolgeville-Manheim Public Library,24 North Main Street,13329,(315) 429-3421,New York
Dryden,The Southworth Library Association,24 West Main Street,13053,(607) 844-4782,New York
Dundee,Dundee Library,32 Water Street,14837,(607) 243-5938,New York
Dunkirk,Dunkirk Free Library,536 Central Avenue,14048,(716) 366-2511,New York
Earlville,Earlville Free Library,6 North Main Street,13332,(315) 691-5931,New York
East Aurora,Aurora Town Public Library,550 Main Street,14052,(716) 652-4440,New York
East Elmhurst,Queens Borough Public Library - East Elmhurst,95-06 Astoria Boulevard,11363,(718) 225-8414,New York
East Greenbush,East Greenbush Community Library,10 Community Way,12061,(518) 477-7476,New York
East Hampton,East Hampton Library,159 Main Street,11937,(631) 324-0222,New York
East Islip,East Islip Public Library,381 East Main Street,11730,(631) 581-9200,New York
East Meadow,East Meadow Public Library,1886 Front Street,11554,(516) 794-2570,New York
East Rochester,East Rochester Public Library,111 West Elm Street,14445,(585) 586-8302,New York
East Rockaway,East Rockaway Public Library,477 Atlantic Avenue,11518,(516) 599-1664,New York
East Syracuse,East Syracuse Free Library,4990 James Street,13057,(315) 437-4841,New York
East Williston,East Williston Public Library,2 Prospect Street,11596,(516) 741-1213,New York
Eastchester,Eastchester Public Library,11 Oakridge Place,10709,(914) 793-5055,New York
Eden,Eden Library,2901 East Church Street,14057,(716) 992-4028,New York
Edmeston,Edmeston Free Library,6 West Street,13335,(607) 965-8208,New York
Edwards,Hepburn Library Of Edwards,205 Main Street,13635,(315) 562-3521,New York
Elbridge,Elbridge Free Library,241 East Main Street,13060,(315) 689-7111,New York
Eldred,Sunshine Hall Free Library,14 Proctor Road,12732,(845) 557-6258,New York
Elizabethtown,Elizabethtown Library Association,8256 River Street,12932,(518) 873-2670,New York
Ellenburg Center,Ellenburg Center Reading Center,,12934,(518) 594-7489,New York
Ellenburg Depot,Ellenburg Sarah A. Munsil Free Library,5139 Route 11,12935,(518) 594-7314,New York
Ellenville,Ellenville Public Library And Museum,40 Center Street,12428,(845) 647-5530,New York
Ellicottville,Ellicottville Memorial Library,6499 Maples Road,14731,(716) 699-2842,New York
Ellington,Farman Free Library Association Of Ellington,760 Thornton Road,14732,(716) 287-2945,New York
Ellisburg,Ellisburg Free Library,12117 Nys Route 193,13636,(315) 846-5087,New York
Elma,Elma Public Library,1860 Bowen Road,14059,(716) 652-2719,New York
Elmhurst,Queens Borough Public Library - Elmhurst,86-01 Broadway,11373,(718) 271-1020,New York
Elmira,Chemung County Library District,101 East Church Street,14901,(607) 733-9173,New York
Elmira,Steele Memorial Library,101 East Church Street,14901,(607) 733-9173,New York
Elmira,West Elmira Library,1231 W. Water St,14905,(607) 733-0541,New York
Elmont,Elmont Public Library,700 Hempstead Turnpike,11003,(516) 354-5280,New York
Elmsford,Greenburgh Public Library,300 Tarrytown Road,10523,(914) 721-8200,New York
Elwood,Elwood Public Library,3027 Jericho Turnpike,11731,(631) 499-3722,New York
Endicott,George F. Johnson Memorial Library,1001 Park Street,13760,(607) 757-5350,New York
Essex,Belden Noble Memorial Library Of Essex,2759 Essex Rd.,12936,(518) 963-8079,New York
Evans Mills,Evans Mills Public Library,8706 Noble Street,13637,(315) 629-4483,New York
Fair Haven,Fair Haven Public Library,14426 South Richmond Ave,,(315) 947-5851,New York
Fair Haven,Village Of Fair Haven Public Library,14426 South Richmond Avenue,13064,(315) 947-5851,New York
Fairport,Fairport Public Library,1 Village Landing,14450,(585) 223-9091,New York
Fairport,Rochester Regional Library Council,390 Packetts Landing,14450,(585) 223-7570,New York
Falconer,Falconer Public Library,101 West Main Street,14733,(716) 665-3504,New York
Far Rockaway,Queens Borough Public Library - Far Rockaway,1637 Central Avenue,11691,(718) 327-2549,New York
Farmingdale,Farmingdale Public Library,116 Merritts Road,11735,(516) 249-9090,New York
Fayetteville,Fayetteville Free Library,300 Orchard Street,13066,(315) 637-6374,New York
Fillmore,Wide Awake Club Library,46 West Main St.,14735,(585) 567-8301,New York
Findley Lake,Alexander Findley Community Library,2883 North Road,14736,(716) 769-6568,New York
Findley Lake,Findley Lake Community Library,2883 North Road,14736,(716) 769-6568,New York
Fishers Island,Fishers Island Library Association,988 Oriental Avenue,6390,(631) 788-7362,New York
Fishkill,Blodgett Memorial Library District Of Fishkill,37 Broad Street,12524,(845) 896-9215,New York
Fleischmanns,Skene Memorial Library,1017 Main Street,12430,(845) 254-4581,New York
Floral Park,Floral Park Public Library,17 Caroline Place,11001,(516) 326-6330,New York
Florida,Florida Public Library,4 Cohen Circle,10921,(845) 651-7659,New York
Flushing,Queens Borough Public Library - Auburndale,25-55 Francis Lewis Boulevard,11358,(718) 352-2027,New York
Flushing,Queens Borough Public Library - East Flushing,196-36 Northern Boulevard,11358,(718) 357-6643,New York
Flushing,Queens Borough Public Library - Flushing,41-17 Main Street,11355,(718) 661-1200,New York
Flushing,Queens Borough Public Library - Hillcrest,187-05 Union Turnpike,11366,(718) 454-2786,New York
Flushing,Queens Borough Public Library - Kew Gardens Hills,72-33 Vleigh Place,11367,(718) 261-6654,New York
Flushing,Queens Borough Public Library - Mcgoldrick,155-06 Roosevelt Av.,11354,(718) 461-1616,New York
Flushing,Queens Borough Public Library - Mitchell-Linden,29-42 Union Street,11354,(718) 539-2330,New York
Flushing,Queens Borough Public Library - Pomonok,158-21 Jewel Avenue,11365,(718) 591-4343,New York
Flushing,Queens Borough Public Library - Queensboro Hill,60-05 Main Street,11355,(718) 359-8332,New York
Fonda,Frothingham Free Library,28 West Main Street,12068,(518) 853-3016,New York
Forest Hills,Queens Borough Public Library - Forest Hills,108-19 71 Avenue,11375,(718) 268-7934,New York
Forest Hills,Queens Borough Public Library - North Forest Park,98-27 Metropolitan Avenue,11375,(718) 261-5512,New York
Fort Edward,Fort Edward Free Library,23 East Street,12828,(518) 747-6743,New York
Fort Hunter,Fort Hunter Free Library,351 Main Street,12069,(518) 829-7248,New York
Fort Plain,Fort Plain Free Library,19 Willett Street,13339,(518) 993-4646,New York
Frankfort,Frankfort Free Library,123 South Frankfort Street,13340,(315) 894-9611,New York
Franklin,Franklin Free Library,334 Main Street,13775,(607) 829-2941,New York
Franklin Square,Franklin Square Public Library,19 Lincoln Road,11010,(516) 488-3444,New York
Franklinville,Blount Library,5 North Main Street,14737,(716) 676-5715,New York
Fredonia,Darwin R. Barker Library Association,7 Day Street,14063,(716) 672-8051,New York
Freeport,Freeport Memorial Library,144 West Merrick Road,11520,(516) 379-3274,New York
Fresh Meadows,Queens Borough Public Library - Fresh Meadows,193-20 Horace Harding Expressway,11365,(718) 454-7272,New York
Frewsburg,Myers Memorial Library,26 Ivory Street,14738,(716) 569-5515,New York
Friendship,Friendship Free Library,40 West Main Street,14739,(585) 973-7724,New York
Fulton,Fulton Public Library,160 South First Street,13069,(315) 592-5159,New York
Galway,Galway Public Library,5264 North Street,12074,(518) 882-6385,New York
Garden City,Adelphi University Library,P.O. Box 701,11530,(516) 877-3574,New York
Garden City,Garden City Public Library,60 Seventh Street,11530,(516) 742-8405,New York
Gardiner,Gardiner Library,133 Farmers Turnpike,12525,(845) 255-1255,New York
Garnerville,Haverstraw Kings Daughters Public Library - Rosman Center,10 West Ramapo Road,10923,(845) 786-3800,New York
Garrison,Alice Curtis Desmond Hamilton Fish Lib,472 Route 403,10524,(845) 424-3020,New York
Garrison,Desmond-Fish Library,472 Route 403,10524,(845) 424-3020,New York
Geneseo,Wadsworth Library,24 Center Street,14454,(585) 243-0440,New York
Geneva,Geneva Public Library,244 Main Street,14456,(315) 789-5303,New York
Germantown,Germantown Library,31 Palatine Park Road,12526,(518) 537-5800,New York
Gilbertsville,Gilbertsville Free Library,19 Commercial Street,13776,(607) 783-2832,New York
Glen Cove,Glen Cove Public Library,4 Glen Cove Avenue,11542,(516) 676-2130,New York
Glen Head,Gold Coast Public Library District,50 Railroad Avenue,11545,(516) 759-8300,New York
Glen Oaks,Queens Borough Public Library - Glen Oaks,256-04 Union Turnpike,11004,(718) 831-8636,New York
Glendale,Queens Borough Public Library - Glendale,78-60 73 Place,11385,(718) 821-4980,New York
Glens Falls,Crandall Public Library,251 Glen Street,12801,(518) 792-6508,New York
Glenville,Schenectady County Public Library - Glenville Branch,20 Glenridge Road,12302,(518) 386-2243,New York
Gloversville,Gloversville Public Library,58 East Fulton Street,12078,(518) 725-2819,New York
Gorham,Gorham Free Library,2664 Main Street,14461,(585) 526-6655,New York
Goshen,Goshen Public Library And Historical Society,203 Main Street,10924,(845) 294-6606,New York
Gouverneur,Reading Room Association Of Gouverneur,60 Church Street,13642,(315) 287-0191,New York
Gowanda,Gowanda Free Library,56 West Main Street,14070,(716) 532-3451,New York
Grafton,Grafton Community Library,2455 Ny Route 2,12082,(518) 279-0580,New York
Grahamsville,Daniel Pierce Library,328 Main Street,12740,(845) 985-7233,New York
Grand Island,Grand Island Memorial Library,1715 Bedell Road,14072,(716) 773-7124,New York
Granville,Pember Library Museum,33 West Main Street,12832,(518) 642-2525,New York
Great Neck,Great Neck Library,159 Bayview Avenue,11023,(516) 466-8055,New York
Greece,Barnard Crossing Branch,2 Vince Tofany Boulevard,14612,(585) 225-8951,New York
Greece,Greece Public Library,2 Vince Tofany Boulevard,14612,(585) 225-8951,New York
Greene,Moore Memorial Library,59 Genesee Street,13778,(607) 656-9349,New York
Greenlawn,Harborfields Public Library,31 Broadway,11740,(631) 757-4200,New York
Greenport,Floyd Memorial Library,539 First Street,11944,(631) 477-0660,New York
Greenville,Greenville Public Library,8 North Street,12083,(518) 966-8205,New York
Greenwich,Easton Library,1074 State Route 40,12834,(518) 692-2253,New York
Greenwich,Greenwich Free Library,148 Main Street,12834,(518) 692-7157,New York
Greenwood Lake,Greenwood Lake Public Library,79 Waterstone Road,10925,(845) 477-8377,New York
Groton,Groton Public Library,112 East Cortland Street,13073,(607) 898-5055,New York
Guilderland,Guilderland Public Library,2228 Western Avenue,12084,(518) 456-2400,New York
Haines Falls,Haines Falls Free Library,52 County Route 18,12436,(518) 589-5707,New York
Hamburg,Hamburg Library,102 Buffalo Street,14075,(716) 649-4415,New York
Hamilton,Hamilton Public Library,13 Broad Street,13346,(315) 824-3060,New York
Hamlin,Hamlin Public Library,422 Hamlin Clarkson Tl Rd.,14464,(585) 964-2320,New York
Hamlin,Town Of Hamlin Library,422 Clarkson Hamlin Tl Road,14464,(800) 662-1220,New York
Hammond,Hammond Free Library,17 Main Street,13646,(315) 324-5139,New York
Hammondsport,Fred And Harriet Taylor Memorial Library,21 William Street,14840,(607) 569-2045,New York
Hampton Bays,Hampton Bays Public Library,52 Ponquogue Avenue,11946,(631) 728-6241,New York
Hancock,Louise Adelia Read Memorial Library,104 Read Street,13783,(607) 637-2519,New York
Hannibal,Hannibal Free Library,162 Oswego Street,13074,(315) 564-5471,New York
Harrison,Harrison Public Library,2 Bruce Avenue,10528,(914) 835-0324,New York
Harrisville,Harrisville Free Library,8209 Main Street,13648,(315) 543-2577,New York
Hartwick,Kinney Memorial Library,3140 County Route 11,13348,(607) 293-6600,New York
Hastings-On-Hudson,Hastings-On-Hudson Public Library,7 Maple Avenue,10706,(914) 478-3307,New York
Hauppauge,Hauppauge Public Library,601 Veterans Memorial Hwy.,11788,(631) 979-1600,New York
Haverstraw,Haverstraw Kings Daughters Public Library - Village Branch,85 Main Street,10927,(845) 429-3445,New York
Hempstead,Hempstead Public Library,115 Nichols Court,11550,(516) 481-6990,New York
Henderson,Henderson Free Library,8939 Nys Route 178,13650,(315) 938-7169,New York
Herkimer,"Frank J. Basloe Library Of Herkimer, New York",245 North Main Street,13350,(315) 866-1733,New York
Hermon,Hepburn Library Of Hermon,105 Main Street,13652,(315) 347-2285,New York
Heuvelton,Heuvelton Free Library,57 State Street,13654,(315) 344-6550,New York
Hewlett,Hewlett-Woodmere Public Library,1125 Broadway,11557,(516) 374-1967,New York
Hicksville,Hicksville Free Public Library,169 Jerusalem Avenue,11801,(516) 931-1417,New York
Highland,Highland Public Library,30 Church Street,12528,(845) 691-2275,New York
Highland Falls,Highland Falls Library,298 Main Street,10928,(845) 446-3113,New York
Highland Mills,Woodbury Public Library,16 County Route 105,10930,(845) 928-6162,New York
Hillsdale,Roeliff Jansen Community Library Association,2609 Route 23,12529,(518) 325-4101,New York
Hilton,Parma Public Library,7 West Avenue,14468,(585) 392-8350,New York
Hogansburg,"Akwesasne Cultural Center, Inc.",321 State Route 37,13655,(518) 358-2240,New York
Holbrook,Sachem Public Library,150 Holbrook Road,11741,(631) 588-5024,New York
Holland Patent,Holland Patent Free Library,9580 Main Street,13354,(315) 865-5034,New York
Holley,Community Free Library,86 Public Square,14470,(585) 638-6987,New York
Hollis,Queens Borough Public Library - Hollis,202-05 Hillside Avenue,11423,(718) 465-7355,New York
Homer,Phillips Free Library,37 South Main Street,13077,(607) 749-4616,New York
Honeoye,Honeoye Public Library,8708 Main St.,14471,(585) 229-5020,New York
Honeoye Falls,Mendon Public Library,22 North Main Street,14472,(585) 624-6067,New York
Honeoye Falls,Town Of Mendon Public Library,15 Monroe Street,14472,(585) 624-6067,New York
Hoosick Falls,Cheney Library,77 Classic Street,12090,(518) 686-9401,New York
Hopewell Junction,Beekman Library,11town Center Blvd,12533,(845) 724-3414,New York
Hopewell Junction,East Fishkill Public Library District,348 Route 376,12533,(845) 221-9943,New York
Hornell,Hornell Public Library,64 Genesee Street,14843,(607) 324-1210,New York
Hornell,Howard Public Library,3607 County Route 70a,14843,(607) 566-2412,New York
Horseheads,Horseheads Free Library,405 S. Main St.,14845,(607) 739-4581,New York
Howard Beach,Queens Borough Public Library - Howard Beach,92-06 156 Avenue,11414,(718) 641-7086,New York
Hudson,Hudson Area Association Library,400 State Street,12534,(518) 828-1792,New York
Hudson Falls,Hudson Falls Free Library Association,220 Main Street,12839,(518) 747-6406,New York
Hunter,Hunter Public Library,6361 Main Street,12442,(518) 263-4655,New York
Huntington,Huntington Public Library,338 Main Street,11743,(631) 427-5165,New York
Huntington Statio,South Huntington Public Library,145 Pidgeon Hill Road,11746,(631) 549-4411,New York
Huntington Station,Huntington Public Library - Station Branch,1335 New York Avenue,11746,(631) 421-5053,New York
Hurley,Hurley Library District,44 Main Street,12443,(845) 338-2092,New York
Hyde Park,Hyde Park Free Library,2 Main Street,12538,(845) 229-7791,New York
Ilion,Ilion Free Public Library,78 West Street,13357,(315) 894-5028,New York
Indian Lake,Town Of Indian Lake Public Library,p.o. box 778,12842,(518) 648-5444,New York
Inlet,Town Of Inlet Public Library,164 North Route 28,13360,(315) 357-6494,New York
Interlaken,Interlaken Public Library,8390 Main Street,14847,(607) 532-4341,New York
Irving,Seneca Nation Of Indians Library Cattaraugus Territory,3 Thomas Indian School Drive,14081,(716) 532-9449,New York
Irvington,Irvington Pub Lib Guiteau Foundation,12 South Astor Street,10533,(914) 591-7840,New York
Island Park,Island Park Public Library,176 Long Beach Road,11558,(516) 432-0122,New York
Islip,Islip Public Library,71 Monell Avenue,11751,(631) 581-5933,New York
Ithaca,Finger Lakes Library System,119 E. Green St.,14850,(607) 273-4074,New York
Ithaca,Tompkins County Public Library,101 E Green Street,14850,(607) 272-4557,New York
Jackson Heights,Queens Borough Public Library - Jackson Heights,35-51 81 Street,11372,(718) 899-2500,New York
Jamaica,Queens Borough Public Library - Baisley Park,117-11 Sutphin Boulevard,11436,(718) 529-1590,New York
Jamaica,Queens Borough Public Library - Central Library,89-11 Merrick Boulevard,11432,(718) 990-0700,New York
Jamaica,Queens Borough Public Library - Rochdale Village,169-09 137 Avenue,11434,(718) 723-4440,New York
Jamaica,Queens Borough Public Library - South Jamaica,108-41 Guy R. Brewer Boulevard,11433,(718) 739-4088,New York
Jamestown,Chautauqua-Cattaraugus Library System,106 West Fifth Street,14701,(716) 484-7135,New York
Jamestown,Fluvanna Free Library,3532 Fluvanna Avenue Extension,14701,(716) 487-1773,New York
Jamestown,Hazeltine Public Library,891 Busti-Sugar Grove Road,14701,(716) 487-1281,New York
Jamestown,James Prendergast Library Association,509 Cherry Street,14701,(716) 484-7135,New York
Jasper,Jasper Free Library,3807 Library Street,14855,(607) 792-3494,New York
Jeffersonville,Western Sullivan Public Library - Jeffersonville Branch,19 Center Street,12748,(845) 482-4350,New York
Jericho,Jericho Public Library,1 Merry Lane,11753,(516) 935-6790,New York
Johnson City,Your Home Public Library,107 Main Street,13790,(607) 797-4816,New York
Johnstown,Johnstown Public Library,38 South Market Street,12095,(518) 762-8317,New York
Jordan,Jordan Bramley Library,15 Mechanic Street,13080,(315) 689-3296,New York
Jordanville,Jordanville Public Library,189 Main Street,13361,(315) 858-2874,New York
Katonah,Katonah Village Library,26 Bedford Road,10536,(914) 232-3508,New York
Keene,Keene Public Library,p.o. box 206,12942,(518) 576-2200,New York
Keene Valley,Keene Valley Public Library,1796 Main Street,12943,(518) 576-4335,New York
Keeseville,Keeseville Free Library,1721 Front Street,12944,(518) 834-9054,New York
Kenmore,Kenmore Branch,160 Delaware Road,14217,(716) 873-2861,New York
Kennedy,Kennedy Free Library,3593 Church Street,14747,(716) 267-4265,New York
Kent Lakes,Kent Public Library,17 Sybils Crossing,10512,(845) 225-8585,New York
Kinderhook,Kinderhook Memorial Library,18 Hudson Street,12106,(518) 758-6192,New York
Kingston,Kingston Library,55 Franklin Street,12401,(845) 331-0507,New York
Kingston,Town Of Ulster Public Library,860 Ulster Avenue,12401,(845) 338-7881,New York
Lackawanna,Lackawanna Public Library,560 Ridge Road,14218,(716) 823-0630,New York
Lafargeville,Orleans Public Library,36263 Nys Route 180,13656,(315) 658-2271,New York
Lafayette,Lafayette Public Library,2577 Route 11 North,13084,(315) 677-3782,New York
Lake George,Caldwell-Lake George Library,336 Canada Street,12845,(518) 668-2528,New York
Lake Luzerne,Hadley-Luzerne Public Library,19 Main Street,12846,(518) 696-3423,New York
Lake Placid,Lake Placid Public Library,2471 Main Street,12946,(518) 523-3200,New York
Lakewood,Lakewood Memorial Library,12 West Summit Street,14750,(716) 763-6234,New York
Lancaster,Lancaster Public Library,5466 Broadway,14086,(716) 683-1120,New York
Lansing,Lansing Community Library,27 Auburn Rd,14882,(607) 533-4939,New York
Larchmont,Larchmont Public Library,121 Larchmont Avenue,10538,(914) 834-2281,New York
Laurelton,Queens Borough Public Library - Laurelton,134-26 225 Street,11413,(718) 528-2822,New York
Lawrence,Peninsula Public Library,280 Central Avenue,11559,(516) 239-3262,New York
Leroy,Woodward Memorial Library,7 Wolcott Street,14482,(585) 768-8300,New York
Levittown,Island Trees Public Library,38 Farmedge Road,11756,(516) 731-2211,New York
Levittown,Levittown Public Library,1 Bluegrass Lane,11756,(516) 731-5728,New York
Lewiston,Lewiston Public Library,305 South Eighth Street,14092,(716) 754-4720,New York
Liberty,Liberty Public Library,189 North Main Street,12754,(845) 292-6070,New York
Lima,Lima Public Library,1872 Genesee Street,14485,(585) 582-1311,New York
Lindenhurst,Lindenhurst Memorial Library,,11757,(631) 957-7755,New York
Lisbon,Hepburn Library Of Lisbon,6899 County Route 10,13658,(315) 393-0111,New York
Lisle,Lisle Free Library,8998 Main Street,13797,(607) 692-3115,New York
Little Falls,Little Falls Public Library,10 Waverly Place,13365,(315) 823-1542,New York
Little Genesee,Genesee Library,8351 Main Street,14754,(585) 928-1915,New York
Little Neck,Queens Borough Public Library - Douglaston-Little Neck,249-01 Northern Boulevard,11363,(718) 225-8414,New York
Little Neck,Queens Borough Public Library - North Hills,57-04 Marathon Parkway,11362,(718) 225-3550,New York
Little Valley,Memorial Library Of Little Valley,110 Rock City Street,14755,(716) 938-6301,New York
Liverpool,Liverpool Public Library,310 Tulip Street,13088,(315) 457-0310,New York
Livingston,Livingston Free Library,90 Old Post Road,12541,(518) 851-2270,New York
Livingston Manor,Livingston Manor Free Library,92 Main Street,12758,(845) 439-5440,New York
Livonia,Livonia Public Library,2 Washington Street,14487,(585) 346-3450,New York
Lockport,Lockport Public Library,23 East Avenue,14094,(716) 433-5935,New York
Locust Valley,Locust Valley Library,170 Buckram Road,11560,(516) 671-1837,New York
Lodi,Lodi Whittier Library,2155 East Seneca Street,14860,(607) 582-6218,New York
Long Beach,Long Beach Public Library,111 West Park Avenue,11561,(516) 432-7201,New York
Long Island City,Briarcliffe College Library - Queens,"30-30 Thomson Ave., Suite 502",11101,,New York
Long Island City,Queens Borough Public Library - Broadway,40-20 Broadway,11103,(718) 721-2462,New York
Long Island City,Queens Borough Public Library - Court Square,25-01 Jackson Avenue,11101,(718) 937-2790,New York
Long Island City,Queens Borough Public Library - Long Island City,37-44 21 Street,11101,(718) 752-3700,New York
Long Island City,Queens Borough Public Library - Queensbridge Family Literacy Center,10-43 41 Ave,11101,(718) 661-1244,New York
Long Island City,Queens Borough Public Library - Ravenswood Family Literacy Center,35-32 21 St.,11106,,New York
Long Island City,Queens Borough Public Library - Sunnyside,43-06 Greenpoint Avenue,11104,(718) 728-1965,New York
Long Lake,Cornelius Vanderbilt Whitney Long Lake Library,1195 Main Street,12847,(518) 624-3825,New York
Loudonville,William K Sanford Town Library,629 Albany Shaker Road,12211,(518) 458-9274,New York
Lowville,Lowville Free Library,5387 Dayan Street,13367,(315) 376-2131,New York
Lynbrook,Lynbrook Public Library,56 Eldert Street,11563,(516) 599-8630,New York
Lyndonville,Yates Community Library,15 North Main Street,14098,(585) 765-9041,New York
Lyons,Lyons Public Library,122 Broad Street,14489,(315) 946-9262,New York
Lyons Falls,Lyons Falls Library,3918 High Street,13368,(315) 348-6180,New York
Macedon,Macedon Public Library,30 Main Street,14502,(315) 986-5932,New York
Machias,King Memorial Library,9538 Rt. 16,14101,(716) 353-9915,New York
Madrid,Hepburn Library Of Madrid,11 Church Street,13660,(315) 322-5673,New York
Mahopac,Mahopac Public Library,668 Route 6,10541,(845) 628-2009,New York
Malone,"The Wead Library, The Malone Central School District Public",64 Elm Street,12953,(518) 483-5251,New York
Malone,"Wead Library, Malone",64 Elm Street,12953,(518) 483-5251,New York
Malverne,Malverne Public Library,61 St. Thomas Place,11565,(516) 599-0750,New York
Mamaroneck,Mamaroneck Public Library District,102 Mamaroneck Ave.,10543,(914) 698-1250,New York
Manhasset,Manhasset Public Library,30 Onderdonk Avenue,11030,(516) 627-2300,New York
Manlius,Manlius Library,1 Arkie Albanese Avenue,13104,(315) 682-6400,New York
Mannsville,Mannsville Free Library,108 Lilac Park Drive,13661,(315) 465-4049,New York
Marathon,Peck Memorial Library,24 Main Street,13803,(607) 849-6135,New York
Marcellus,Marcellus Free Library,32 Maple Street,13108,(315) 673-3221,New York
Margaretville,Fairview Public Library,43 Walnut Street,12455,(845) 586-3791,New York
Marilla,Marilla Free Library,11637 Bullis Road,14102,(716) 652-7449,New York
Marion,Marion Public Library,4036 Maple Avenue,14505,(315) 926-4933,New York
Marlboro,Marlboro Free Library,1251 Route 9w,12542,(845) 236-7272,New York
Martinsburg,William H. Bush Memorial Library,5605 Whitaker Road,13404,(315) 376-7490,New York
Maspeth,Queens Borough Public Library - Maspeth,69-70 Grand Avenue,11378,(718) 639-5228,New York
Massapequa,Plainedge Public Library,1060 Hicksville Road,11758,(516) 735-4133,New York
Massapequa Park,Massapequa Public Library,40 Harbor Lane,11762,(516) 799-0770,New York
Massena,Massena Public Library,41 Glenn Street,13662,(315) 769-9914,New York
Mattituck,Mattituck-Laurel Library,13900 Main Road,11952,(631) 298-4134,New York
Mattydale,Salina Free Library,100 Belmont St.,13211,(315) 454-4524,New York
Mayville,Mayville Library,92 South Erie Street,14757,(716) 753-7362,New York
Mcgraw,Lamont Memorial Free Library,5 Main Street,13101,(607) 836-6767,New York
Mechanicville,Mechanicville District Public Library,190 North Main Street,12118,(518) 664-4646,New York
Medina,Lee-Whedon Memorial Library,620 West Avenue,14103,(585) 798-3430,New York
Menands,Menands Public Library,4 North Lyons Avenue,12204,(518) 463-4035,New York
Merrick,Merrick Library,2279 Merrick Avenue,11566,(516) 377-6112,New York
Mexico,Mexico Public Library,3269 Main Street,13114,(315) 963-3408,New York
Middle Island,Longwood Public Library,800 Middle Country Road,11953,(631) 924-6400,New York
Middle Village,Queens Borough Public Library - Middle Village,72-31 Metropolitan Avenue,11379,(718) 326-1390,New York
Middleburgh,Middleburgh Library,323 Main Street,12122,(518) 827-5142,New York
Middleport,Middleport Free Library,9 Vernon Street,14105,(716) 735-3281,New York
Middletown,Ramapo Catskill Library System,619 Rte 17m,10940,(845) 343-1131,New York
Middletown,Thrall Public Library District Of Middletown And Wallkill,11-19 Depot Street,10940,(845) 341-5454,New York
Middleville,Middleville Free Library,1 South Main Street,13406,(315) 891-3655,New York
Milford,Milford Free Library,64 South Main Street,13807,(607) 286-9076,New York
Millbrook,Millbrook Free Library,3 Friendly Lane,12545,(845) 677-3611,New York
Millerton,North East- Millerton Library,75 Main Street,12546,(518) 789-3340,New York
Milton,Sarah Hull Hallock Free Library,56-58 Main Street,12547,(845) 795-2200,New York
Mineola,Mineola Memorial Library,195 Marcellus Road,11501,(516) 746-8488,New York
Minoa,Minoa Library,242 N. Main Street,13116,(315) 656-7401,New York
Modena,Plattekill Public Library,2047 Route 32,12548,(845) 883-7286,New York
Mohawk,Weller Library,41 West Main Street,13407,(315) 866-2983,New York
Monroe,Monroe Free Library,44 Millpond Parkway,10950,(845) 783-4411,New York
Montauk,Montauk Library,871 Montauk Highway,11954,(631) 668-3377,New York
Montgomery,Montgomery Free Library,133 Clinton Street,12549,(845) 457-5616,New York
Monticello,Ethelbert B. Crawford Public Library,393 Broadway,12701,(845) 794-4660,New York
Montour Falls,Montour Falls Memorial Library,406 Main Street,14865,(607) 535-7489,New York
Montrose,Hendrick Hudson Free Library,185 Kings Ferry Road,10548,(914) 739-5654,New York
Mooers,Mooers Free Library,"2430 Route 11, Main Street",12958,(518) 236-7744,New York
Moravia,Powers Library,29 Church Street,13118,(315) 497-1955,New York
Morris,Village Library Of Morris,152 Main Street,13808,(607) 263-2080,New York
Morristown,Morristown Public Library,200 Main Street,13664,(315) 375-8833,New York
Morrisville,Morrisville Public Library,87 East Main Street,13408,(315) 684-9130,New York
Mount Kisco,Mount Kisco Public Library,55 Maple Avenue,10549,(914) 666-8041,New York
Mount Morris,Mount Morris Library,121 Main Street,14510,(585) 658-4412,New York
Mount Vernon,Mount Vernon Public Library,28 South First Avenue,10550,(914) 668-1840,New York
Mumford,Mumford Branch Library,883 George Street,,(585) 538-6124,New York
Nanuet,Nanuet Public Library,149 Church Street,10954,(845) 623-4281,New York
Naples,Naples Library,118 South Main Street,14512,(585) 374-2757,New York
Narrowsburg,Western Sullivan Public Library - Tusten-Cochecton Branch,198 Bridge Street,12764,(845) 252-3360,New York
Nassau,Nassau Free Library,18 Church Street,12123,(518) 766-2715,New York
New Berlin,New Berlin Library,15 South Main Street,13411,(607) 847-8564,New York
New City,Library Association Of Rockland County,P.O. Box 917,10956,(845) 268-7700,New York
New City,New City Free Library,220 North Main Street,10956,(845) 634-4997,New York
New Hartford,New Hartford Public Library,2 Library Lane,13413,(315) 733-1535,New York
New Hyde Park,Hillside Public Library Of New Hyde Park,155 Lakeville Road,11040,(516) 355-7850,New York
New Lebanon,New Lebanon Library,550 Route 20,12125,(518) 794-8844,New York
New Paltz,Elting Memorial Library,93 Main Street,12561,(845) 255-5030,New York
New Rochelle,New Rochelle Public Library,,10801,(914) 632-7878,New York
New Woodstock,New Woodstock Free Library,2106 Main Street,13122,(315) 662-3134,New York
New York,115th Street Library,203 West 115th Street,10026,(212) 666-9393,New York
New York,125th Street Library,224 East 125th Street,10035,(212) 534-5050,New York
New York,58th Street Library,127 East 58th Street,10022,(212) 759-7358,New York
New York,67th Street Library,328 East 67th Street,10065,(212) 734-1717,New York
New York,96th Street Library,112 East 96th Street,10128,(212) 289-0908,New York
New York,Aguilar Library,174 East 110th Street,10029,(212) 534-2930,New York
New York,Andrew Heiskell Braille And Talking Book Library,40 West 20th Street,10011,(212) 206-5400,New York
New York,Battery Park City Library,175 North End Avenue,10282,(212) 790-3499,New York
New York,Bloomingdale Library,150 West 100th Street,10025,(212) 222-8030,New York
New York,Chatham Square Library,33 East Broadway,10002,(212) 964-6598,New York
New York,Columbus Library,742 10th Avenue,10019,(212) 586-5098,New York
New York,Countee Cullen Library,104 West 136th Street,,(212) 491-2070,New York
New York,Epiphany Library,228 East 23rd Street,10010,(212) 679-2645,New York
New York,Fort Washington Library,535 West 179th Street,10033,(212) 927-3533,New York
New York,George Bruce Library,518 West 125th Street,10027,(212) 662-9727,New York
New York,Grand Central Library,135 East 46th Street,10017,(212) 621-0670,New York
New York,Hamilton Fish Park Library,415 East Houston Street,10002,(212) 673-2290,New York
New York,Hamilton Grange Library,503 West 145th Street,10031,(212) 926-2147,New York
New York,Harlem Library,9 West 124th Street,10027,(212) 348-5620,New York
New York,Hudson Park Library,66 Leroy Street,10014,(212) 243-6876,New York
New York,Inwood Library,4790 Broadway,10034,,New York
New York,Jefferson Market Library,425 Avenue Of The Americas,10011,(212) 243-4334,New York
New York,Kips Bay Library,446 Third Avenue,10016,(212) 683-2520,New York
New York,Macombs Bridge Library,"2650 Adam Clayton Powell, Jr. Blvd.",10039,(212) 281-4900,New York
New York,Mid-Manhattan Library,455 Fifth Avenue,10016,(212) 340-0863,New York
New York,Morningside Heights,2900 Broadway,10025,(212) 864-2530,New York
New York,Muhlenberg Library,209 West 23rd Street,10011,(212) 924-1585,New York
New York,Mulberry Street Library,10 Jersey Street,10012,(212) 966-3424,New York
New York,New Amsterdam Library,9 Murray Street,10007,(212) 732-8186,New York
New York,"New York Public Library For The Performing Arts, Dorothy And Lewis B. Cullman Center",40 Lincoln Center Plaza,10023,(917) 275-6975,New York
New York,"New York Public Library, The Branch Libraries",455 Fifth Avenue,10016,(212) 930-0674,New York
New York,Ottendorfer Library,135 Second Avenue,10003,(212) 674-0947,New York
New York,Riverside Library,127 Amsterdam Avenue,10023,(212) 870-1810,New York
New York,Roosevelt Island Library,524 Main Street,10044,(212) 308-6243,New York
New York,Schomburg Center For Research In Black Culture,515 Malcolm X Boulevard,10037,(212) 491-2200,New York
New York,"Science, Industry And Business Library",188 Madison Avenue 34th Street,10016,(917) 275-6975,New York
New York,Seward Park Library,192 East Broadway,10002,(212) 477-6770,New York
New York,St. Agnes Library,444 Amsterdam Avenue,10024,(212) 621-0619,New York
New York,Stephen A. Schwarzman Building,,10018,(917) 275-6975,New York
New York,Terence Cardinal Cooke-Cathedral Library,560 Lexington Avenue,10022,(212) 752-3824,New York
New York,Tompkins Square Library,331 East 10th Street,10009,(212) 228-4747,New York
New York,Washington Heights Library,1000 St. Nicholas Avenue,10032,(212) 923-6054,New York
New York,Webster Library,1465 York Avenue,10021,(212) 288-5049,New York
New York,Yorkville Library,222 East 79th Street,10021,(212) 744-5824,New York
New York Mills,New York Mills Public Library,399 Main Street,13417,(315) 736-5391,New York
Newark,Newark Public Library,121 High Street,14513,(315) 331-4370,New York
Newark Valley,Tappan-Spaulding Memorial Library,6 Rock Street,13811,(607) 642-9960,New York
Newburgh,Newburgh Free Library,124 Grand Street,12550,(845) 563-3600,New York
Newfane,Newfane Free Library,2761 Maple Avenue,14108,(716) 778-9344,New York
Newfield,Newfield Public Library,198 Main Street,14867,(607) 564-3594,New York
Newport,Newport Free Library,7390 Main Street,13416,(315) 845-8533,New York
Niagara Falls,Niagara Falls Public Library,1425 Main Street,14305,(716) 286-4911,New York
Nichols,George P. Susan Platt Cady Library,42 River Street,13812,(607) 699-3835,New York
Nineveh,Nineveh Pub Lib Of Colesville Township,3029 Ny State Hwy 7,13813,(607) 693-1858,New York
Niskayuna,Schenectady County Public Library - Niskayuna Branch,2400 Nott Street East,12309,(518) 386-2249,New York
Norfolk,Hepburn Library Of Norfolk,1 Hepburn Street,13667,(315) 384-3052,New York
North Babylon,North Babylon Public Library,815 Deer Park Avenue,11703,(631) 669-4020,New York
North Bellmore,North Bellmore Public Library,1551 Newbridge Road,11710,(516) 785-6260,New York
North Chatham,North Chatham Free Library,4286 State Route 203,12132,(518) 766-3211,New York
North Collins,North Collins Library,2095 School Street,14111,(716) 337-3211,New York
North Collins,Town Of North Collins Public Library,2095 School Street,14111,(716) 337-3211,New York
North Creek,Town Of Johnsburg Library,219 Main Street,12853,(518) 251-4343,New York
North Merrick,North Merrick Public Library,1691 Meadowbrook Road,11566,(516) 378-7474,New York
North Salem,Ruth Keeler Memorial Library,276 Titicus Road,10560,(914) 669-5161,New York
North Tonawanda,North Tonawanda Public Library,505 Meadow Drive,14120,(716) 693-4132,New York
Northport,Northport Public Library,151 Laurel Avenue,11768,(631) 261-6930,New York
Northville,Northville Public Library,341 South Third Street,12134,(518) 863-6922,New York
Norwich,Guernsey Memorial Library Of Norwich,3 Court Street,13815,(607) 334-4034,New York
Norwood,Norwood Library,1 Morton Street,13668,(315) 353-6692,New York
Nunda,Bell Memorial Library,16 East Street,14517,(585) 468-2266,New York
Nyack,Nyack Library,59 South Broadway,10960,(845) 358-3370,New York
Oakfield,Haxton Memorial Library,3 North Pearl Street,14125,(585) 948-9900,New York
Oceanside,Oceanside Library,30 Davison Avenue,11572,(516) 766-2360,New York
Odessa,Dutton S. Peterson Memorial Library,106 First St.,14869,(607) 594-2791,New York
Ogdensburg,Ogdensburg Public Library,312 Washington Street,13669,(315) 393-4325,New York
Old Forge,Old Forge Library,220 Crosby Boulevard,13420,(315) 369-6008,New York
Olean,Olean Public Library,134 North Second Street,14760,(716) 372-0200,New York
Oneida,Oneida Public Library,220 Broad Street,13421,(315) 363-3050,New York
Oneonta,Huntington Memorial Library,62 Chestnut Street,13820,(607) 432-1980,New York
Ontario,Ontario Public Library,1850 Ridge Road,14519,(315) 524-8381,New York
Orangeburg,Orangeburg Library,20 South Greenbush Road,10962,(845) 359-2244,New York
Orchard Park,Orchard Park Public Library,4570 South Buffalo Street,14127,(716) 662-9851,New York
Oriskany,Oriskany Public Library,621 Utica Street,13424,(315) 736-2532,New York
Oriskany Falls,C. W. Clark Memorial Library,160 North Main Street,13425,(315) 821-7850,New York
Orwell,Cogswell Free Library,1999 County Route 2,13426,(315) 298-5563,New York
Ossining,Ossining Public Library,53 Croton Avenue,10562,(914) 941-2416,New York
Oswego,Oswego School District Public Library,120 East Second Street,13126,(315) 341-5867,New York
Otego,Harris Memorial Library,334 Main Street,13825,(607) 988-6661,New York
Ovid,Edith B. Ford Memorial Library,7169 North Main Street,14521,(607) 869-3031,New York
Owego,Coburn Free Library,275 Main Street,13827,(607) 687-3520,New York
Oxford,Oxford Memorial Library,8 Fort Hill Park,13830,(607) 843-6146,New York
Oyster Bay,Oyster Bay-East Norwich Public Library,89 East Main Street,11771,(516) 922-1212,New York
Ozone Park,Queens Borough Public Library - Ozone Park,92-24 Rockaway Boulevard,11417,(718) 845-3127,New York
Palenville,Catskill Public Library Palenville Branch,3335 Route 23a,12463,(518) 678-3357,New York
Palisades,Palisades Free Library,19 Closter Road,10964,(845) 359-0136,New York
Palmyra,Palmyra Kings Daughters Free Lib.,127 Cuyler Street,14522,(315) 597-5276,New York
Parish,Parish Public Library,3 Church Street,13131,(315) 625-7130,New York
Patchogue,Briarcliffe College Library - Patchogue,225 West Main Street,11772,(631) 730-2006,New York
Patchogue,Patchogue-Medford Library,54-60 East Main Street,11772,(631) 654-4700,New York
Patterson,Patterson Library,1167 Route 311,12563,(845) 878-6121,New York
Pavilion,Pavilion Public Library,5 Woodrow Drive,14525,(585) 584-8843,New York
Pawling,Pawling Free Library,11 Broad Street,12564,(845) 855-3444,New York
Pearl River,Pearl River Public Library,80 Franklin Avenue,10965,(845) 735-4084,New York
Peekskill,The Field Library,4 Nelson Avenue,10566,(914) 737-1212,New York
Pelham,Town Of Pelham Public Library,530 Colonial Avenue,10803,(914) 738-1234,New York
Penfield,Penfield Public Library,1985 Baird Road,14526,(585) 340-8720,New York
Penn Yan,Penn Yan Public Library,214 Main Street,14527,(315) 536-6114,New York
Perry,Perry Public Library,70 North Main Street,14530,(585) 237-2243,New York
Peru,Peru Free Library,3024 Route 22,12972,(518) 643-8618,New York
Petersburgh,Petersburg Public Library,69 Main Street,12138,(518) 658-2927,New York
Phelps,Phelps Community Memorial Library,8 Banta St. Suite 200,14532,(315) 548-3120,New York
Philadelphia,Bodman Memorial Library,8 Aldrich Street,13673,(315) 642-3323,New York
Philmont,Philmont Public Library,101 Main Street,12565,(518) 672-5010,New York
Phoenicia,Phoenicia Library,48 Main Street,12464,(845) 688-7811,New York
Phoenix,Phoenix Public Library,34 Elm Street,13135,(315) 695-4355,New York
Piermont,Piermont Library District,25 Flywheel Park West,10968,(845) 359-4595,New York
Pike,Pike Library,65 West Main Street,14130,(585) 493-5900,New York
Pine Bush,Pine Bush Area Public Library District,227 Maple Avenue,12566,(845) 744-3375,New York
Pine Hill,Morton Memorial Library,22 Elm Street,12465,(845) 254-4222,New York
Pine Plains,Pine Plains Free Library,7806 South Main Street,12567,(518) 398-1927,New York
Pittsford,Pittsford Community Library,24 State Street,14534,(585) 248-6275,New York
Plainview,Plainview-Old Bethpage Public Library,999 Old Country Road,11803,(516) 938-0077,New York
Plattsburgh,Clinton Essex Franklin Library System,33 Oak Street,12901,(518) 563-5190,New York
Plattsburgh,Plattsburgh Public Library,19 Oak Street,12901,(518) 563-0921,New York
Pleasant Valley,Pleasant Valley Free Library,1584 Main Street,12569,(845) 635-8460,New York
Pleasantville,Mount Pleasant Public Library,350 Bedford Road,10570,(914) 769-0548,New York
Poestenkill,Poestenkill Library,9 Plank Road,12140,(518) 283-3721,New York
Poland,Poland District Public Library,8849 Main Street,13431,(315) 826-3112,New York
Poplar Ridge,Hazard Library,PO Box 2487,13139,(315) 364-7975,New York
Port Byron,Port Byron Library,12 Sponable Drive,13140,(315) 776-5694,New York
Port Chester,Port Chester Public Library,1 Haseco Avenue,10573,(914) 939-6710,New York
Port Ewen,Town Of Esopus Port Ewen Library,128 Canal Street,12466,(845) 338-5580,New York
Port Henry,Sherman Free Library,20 Church Street,12974,(518) 546-7461,New York
Port Jefferson,Port Jefferson Free Library,100 Thompson Street,11777,(631) 473-0022,New York
Port Jefferson Station,Comsewogue Public Library,170 Terryville Road,11776,(631) 928-1212,New York
Port Jervis,Port Jervis Free Library,138 Pike Street,12771,(845) 856-7313,New York
Port Leyden,Port Leyden Community Library,3145 Canal Street,13433,(315) 348-6077,New York
Port Washington,Port Washington Public Library,1 Library Drive,11050,(516) 883-4400,New York
Portville,Portville Free Library,2 North Main Street,14770,(716) 933-8441,New York
Potsdam,Potsdam Public Library,2 Park Street,13676,(315) 265-7230,New York
Poughkeepsie,Greater Poughkeepsie Library District,93 Market Street,12601,(845) 485-3445,New York
Poughkeepsie,Lagrange Association Library,488 Freedom Plains Road,12603,(845) 452-3141,New York
Poughkeepsie,Mid-Hudson Library System,103 Market Street,12601,(845) 471-6060,New York
Poughkeepsie,Poughkeepsie Public Library District,93 Market Street,12601,(845) 485-3445,New York
Pound Ridge,Pound Ridge Library District,271 Westchester Avenue,10576,(914) 764-5085,New York
Prattsburgh,Prattsburg Free Library,26 Main Street,14873,(607) 522-3490,New York
Prospect,Prospect Free Library,915 Trenton Falls Street,13435,(315) 896-2736,New York
Pulaski,Pulaski Public Library,4917 North Jefferson Street,13142,(315) 298-2717,New York
Pulteney,Pulteney Free Library,9226 Cty Rt 74,14874,(607) 868-3652,New York
Purchase,Purchase Free Library,3093 Purchase Street,10577,(914) 948-0550,New York
Putnam Valley,Putnam Valley Free Library,30 Oscawana Lake Road,10579,(845) 528-3242,New York
Queens Village,Queens Borough Public Library - Queens Village,94-11 217 Street,11428,(718) 776-6800,New York
Quogue,Quogue Library,90 Quogue Street,11959,(631) 653-4224,New York
Randolph,Randolph Free Library,26 Jamestown Street,14772,(716) 358-3712,New York
Ransomville,Ransomville Free Library,3733 Ransomville Road,14131,(716) 791-4073,New York
Raquette Lake,Raquette Lake Free Library,1 Dillon Road,13436,(315) 354-4005,New York
Ravena,RCS Community Library,15 Mountain Road,12143,(518) 756-2053,New York
Red Creek,Red Creek Free Library,6817 Main Street,13143,(315) 754-6679,New York
Red Hook,Red Hook Public Library,7444 South Broadway,12571,(845) 758-3241,New York
Rego Park,Queens Borough Public Library - Rego Park,91-41 63 Drive,11374,(718) 459-5140,New York
Remsen,Didymus Thomas Library,9639 Main Street,13438,(315) 831-5651,New York
Rensselaer,Rensselaer Public Library,810 Broadway,12144,(518) 462-1193,New York
Rensselaerville,Rensselaerville Public Library,1459 Main Street,12147,(518) 797-3949,New York
Rhinebeck,Clinton Community Library,1215 Centre Road,12572,(845) 266-5530,New York
Rhinebeck,Starr Library,68 West Market Street,12572,(845) 876-4030,New York
Rhinecliff,Morton Memorial Library And Community House,82 Kelly Street,12574,(845) 876-2903,New York
Richburg,Colonial Library,160 Main Street,14774,(585) 928-2694,New York
Richfield Springs,Richfield Springs Public Library,102 Main Street,13439,(315) 858-0230,New York
Richmond Hill,Queens Borough Public Library - Lefferts,103-34 Lefferts Boulevard,11419,(718) 843-5950,New York
Richmond Hill,Queens Borough Public Library - Richmond Hill,118-14 Hillside Avenue,11418,(718) 849-7150,New York
Richville,Richville Free Library,87 Main Street,13681,(315) 287-1481,New York
Ridgewood,Queens Borough Public Library - Ridgewood,20-12 Madison Street,11385,(718) 821-4770,New York
Ripley,Ripley Free Library,64 West Main Street,14775,(716) 736-3913,New York
Riverhead,Riverhead Free Library,330 Court Street,11901,(631) 727-3228,New York
Rochester,Arnett Branch Library,310 Arnett Boulevard,58542,,New York
Rochester,Brighton Memorial Library,2300 Elmwood Avenue,14618,(585) 784-5300,New York
Rochester,Central Library Of Rochester And Monroe County,115 South Avenue,14604,(585) 428-7300,New York
Rochester,Charlotte Branch Library,3557 Lake Avenue,14612,(585) 428-8216,New York
Rochester,Chili Public Library,3333 Chili Avenue,14624,(585) 889-2200,New York
Rochester,Gates Public Library,902 Elmgrove Road,14624,(585) 247-6446,New York
Rochester,Henrietta Public Library,455 Calkins Road,14623,(585) 359-7093,New York
Rochester,Highland Branch Library,971 South Avenue,,(585) 428-8206,New York
Rochester,Irondequoit Public Library - Helen Mcgraw Branch,2180 East Ridge Rd.,14622,(585) 336-6060,New York
Rochester,Irondequoit Public Library - Pauline Evans Branch,45 Cooper Road,14617,(585) 336-6062,New York
Rochester,Lincoln Branch Library,851 Joseph Avenue,14621,(585) 428-8210,New York
Rochester,Lyell Branch Library,956 Lyell Avenue,14606,(585) 428-8218,New York
Rochester,Maplewood Community Library,1111 Dewey Avenue,14613,(585) 428-8220,New York
Rochester,Monroe Branch Library,809 Monroe Avenue,14607,(585) 428-8202,New York
Rochester,Monroe County Library System,,,,New York
Rochester,Phillis Wheatley Community Library,33 Dr. Samuel Mccree Way,14608,(585) 428-8212,New York
Rochester,Rochester Public Library,115 South Avenue,14604,(585) 428-7300,New York
Rochester,Sully Branch Library,530 Webster Avenue,14609,(585) 428-8208,New York
Rochester,Winton Branch Library,611 Winton Road North,14609,(585) 428-8204,New York
Rockaway Beach,Queens Borough Public Library - Peninsula,92-25 Rockaway Beach Boulevard,11693,(718) 634-1110,New York
Rockaway Park,Queens Borough Public Library - Seaside,116-15 Rockaway Beach Boulevard,11694,(718) 634-1876,New York
Rockville Centre,Lakeview Public Library,1120 Woodfield Road,11570,(516) 536-3071,New York
Rockville Centre,Rockville Centre Public Library,221 North Village Avenue,11570,(516) 766-6257,New York
Rodman,Rodman Public Library,12509 School Street,13682,(315) 232-2522,New York
Rome,"The Jervis Public Library Association, Inc.",613 North Washington Street,13440,(315) 336-4570,New York
Roosevelt,Roosevelt Public Library,27 West Fulton Avenue,11575,(516) 378-0222,New York
Roscoe,Roscoe Free Library,85 Highland Ave,12776,(607) 498-5574,New York
Rose,Rose Free Library,4069 Main Street,14542,(315) 587-2335,New York
Rosedale,Queens Borough Public Library - Rosedale,144-20 243 Street,11422,(718) 528-8490,New York
Rosendale,Rosendale Library,264 Main Street,12472,(845) 658-9013,New York
Roslyn,Bryant Library,2 Paper Mill Road,11576,(516) 621-2240,New York
Round Lake,Womens Round Lake Improvement Society Lib,31 Wesley Avenue,12151,(518) 899-2285,New York
Rouses Point,Rouses Point Dodge Memorial Library,144 Lake Street,12979,(518) 297-6242,New York
Roxbury,Roxbury Library Association,53742 State Highway 30,12474,(607) 326-7901,New York
Rush,Rush Public Library,5977 East Henrietta Road,14543,(585) 533-1370,New York
Rushford,Rushford Free Library,9012 Main Street,14777,(585) 437-2533,New York
Russell,Russell Public Library,24 Pestle Street,13684,(315) 347-2115,New York
Rye,Rye Free Reading Room,1061 Boston Post Road,10580,(914) 967-0480,New York
Sackets Harbor,Hay Memorial Library Of Sackets Harbor,105 South Broad Street,13685,(315) 646-2228,New York
Sag Harbor,John Jermain Memorial Library,201 Main Street,11963,(631) 725-0049,New York
Salamanca,Salamanca Public Library,155 Wildwood Avenue,14779,(716) 945-1890,New York
Salamanca,Seneca Nation Library Allegany Branch,830 Broad Street Extension,14779,(716) 945-3157,New York
Salem,Bancroft Public Library,181 Main Street,12865,(518) 854-7463,New York
Salisbury Center,Kirby Free Library Of Salisbury,105 State Route 29a,13454,(315) 429-9006,New York
Sanborn,Sanborn-Pekin Free Library,5884 West Street,14132,(716) 731-9933,New York
Sandy Creek,Annie Porter Ainsworth Memorial Library,6064 South Main Street,13145,(315) 387-3732,New York
Saranac Lake,Saranac Lake Free Library,109 Main Street,12983,(518) 891-4190,New York
Saratoga Springs,Saratoga Springs Public Library,49 Henry Street,12866,(518) 584-7860,New York
Saratoga Springs,Southern Adirondack Library System,22 Whitney Place,12866,(518) 584-7300,New York
Saugerties,Saugerties Public Library,91 Washington Avenue,12477,(845) 246-4317,New York
Savona,Savona Free Library,15 Mccoy Street,14879,(607) 583-4426,New York
Sayville,Sayville Library,11 Collins Avenue,11782,(631) 589-4440,New York
Scarsdale,Scarsdale Public Library,,10583,(914) 722-1300,New York
Schaghticoke,Arvilla E. Diver Memorial Library,136 Main Street,12154,(518) 753-4344,New York
Schenectady,Mohawk Valley Library Association,858 Duanesburg Road,12306,(518) 355-2010,New York
Schenectady,Schenectady County Public Library,99 Clinton Street,12305,(518) 388-4500,New York
Schenectady,Schenectady County Public Library - Duane Branch,1331 State Street,12304,(518) 386-2242,New York
Schenectady,Schenectady County Public Library - Hamilton Hill Branch,700 Craig Street,12307,(518) 386-2244,New York
Schenectady,Schenectady County Public Library - Mont Pleasant Branch,1026 Crane Street,12303,(518) 386-2245,New York
Schenectady,Schenectady County Public Library - Rotterdam Branch,1100 N. Westcott Road,12306,(518) 356-3440,New York
Schenectady,Schenectady County Public Library - Woodlawn Branch,2 Sanford Street,12304,(518) 386-2248,New York
Schoharie,Schoharie Free Library Assn.,103 Knower Avenue,12157,(518) 295-7127,New York
Schroon Lake,Schroon Lake Public Library,15 Leland Avenue,12870,(518) 532-7737,New York
Schuylerville,Schuylerville Public Library,52 Ferry Street,12871,(518) 695-6641,New York
Scio,Scio Memorial Library,3980 State Rt. 19,14880,(585) 593-4816,New York
Scotia,Schenectady County Public Library - Scotia Branch,14 Mohawk Avenue,12302,(518) 386-2247,New York
Scottsville,Scottsville Free Library,28 Main Street,14546,(585) 889-2023,New York
Sea Cliff,Sea Cliff Village Library,p.o. box 280,11579,(516) 671-4290,New York
Seaford,Seaford Public Library,2234 Jackson Avenue,11783,(516) 221-1334,New York
Seneca Falls,Seneca Falls Library,47 Cayuga Street,13148,(315) 568-8265,New York
Setauket,Emma S. Clark Memorial Library,120 Main Street,11733,(631) 941-4080,New York
Sharon Springs,Sharon Springs Free Library,129 Main Street,13459,(518) 284-3126,New York
Shelter Island,Shelter Island Public Library Society,37 North Ferry Road,11964,(631) 749-0042,New York
Sherburne,Sherburne Public Library,2 East State Street,13460,(607) 674-4242,New York
Sherman,Minerva Free Library,116 Miller Street,14781,(716) 761-6378,New York
Sherrill,Sherrill-Kenwood Free Library,543 Sherrill Road,13461,(315) 363-5980,New York
Shirley,Mastics-Moriches-Shirley Community Lib,407 William Floyd Parkway,11967,(631) 399-1511,New York
Shoreham,North Shore Public Library District,250 Route 25a,11786,(631) 929-4488,New York
Shortsville,Red Jacket Community Library,7 Lehigh Avenue,14548,(585) 289-3559,New York
Shrub Oak,John C. Hart Memorial Library,1130 East Main Street,10588,(914) 245-5262,New York
Sidney,Sidney Memorial Public Library,8 River Street,13838,(607) 563-1200,New York
Silver Creek,Anderson Lee Library,43 Main Street,14136,(716) 934-3468,New York
Silver Springs,Town Of Gainesville Public Library,10 Church Street,14550,(585) 493-2970,New York
Sinclairville,Sinclairville Free Library,15 Main Street,14782,(716) 962-5885,New York
Sloatsburg,Sloatsburg Public Library,1 Liberty Rock Road,10974,(845) 753-2001,New York
Smithtown,Smithtown Special Library District,1 North Country Road,11787,(631) 265-2072,New York
Smyrna,Smyrna Public Library,7 East Main Street,13464,(607) 627-6271,New York
Snyder,Eggertsville-Snyder Branch,4622 Main Street,14226,(716) 839-0700,New York
Sodus,Sodus Free Library,17 Maple Avenue,14551,(315) 483-9292,New York
Solvay,Solvay Public Library,615 Woods Road,13209,(315) 468-2441,New York
Somers,Somers Library,p.o. box 443,10589,(914) 232-5717,New York
South Fallsburg,Fallsburg Library,12 Railroad Plaza,12779,(845) 436-6067,New York
South Hollis,Queens Borough Public Library - South Hollis,204-01 Hollis Avenue,11412,(718) 465-6779,New York
South New Berlin,South New Berlin Free Library,3320 State Highway 8,13843,(607) 859-2420,New York
South Ozone Park,Queens Borough Public Library - South Ozone Park,128-16 Rockaway Boulevard,11420,(718) 529-1660,New York
South Salem,Lewisboro Library,15 Main Street,10590,(914) 763-3857,New York
Southampton,Rogers Memorial Library,91 Coopers Farm Road,11968,(631) 283-0774,New York
Southold,Southold Free Library,53705 Main Road,11971,(631) 765-2077,New York
Speculator,Town Of Lake Pleasant Public Library,2864 State Hwy 8,12164,(518) 548-4411,New York
Spencer,Spencer Library,41 North Main Street,14883,(607) 589-4496,New York
Spencerport,Farmers Library Company Of The Town Of Ogden,269 Ogden Center Road,14559,(585) 617-6181,New York
Spencerport,Ogden Farmers Library,269 Ogden Center Road,14559,(585) 617-6181,New York
Spring Valley,Finkelstein Memorial Library,24 Chestnut Street,10977,(845) 352-5700,New York
Springfield Center,Springfield Library,129 County Route 29a,13468,(315) 858-5802,New York
Springville,Concord Public Library,18 Chapel Street,14141,(716) 592-7742,New York
St. Albans,Queens Borough Public Library - St. Albans,191-05 Linden Boulevard,11412,(718) 528-8196,New York
St. Johnsville,Margaret Reaney Memorial Library,19 Kingsbury Avenue,13452,(518) 568-7822,New York
Staatsburg,Staatsburg Library,72 Old Post Road,12580,(845) 889-4683,New York
Stamford,Stamford Village Library,117 Main Street,12167,(607) 652-5001,New York
Stanfordville,Stanford Free Library,14 Creamery Road,12581,(845) 868-1341,New York
Staten Island,Dongan Hills Library,1617 Richmond Road,10304,(718) 351-1444,New York
Staten Island,Great Kills Library,56 Giffords Lane,10308,(718) 984-6670,New York
Staten Island,Huguenot Park Library,830 Huguenot Avenue,10312,(718) 984-4636,New York
Staten Island,New Dorp Library,309 New Dorp Lane,10306,(718) 351-2977,New York
Staten Island,Port Richmond Library,75 Bennett Street,10302,(718) 442-0158,New York
Staten Island,Richmondtown Library,200 Clarke Avenue,10306,(718) 668-0413,New York
Staten Island,South Beach Library,21-25 Robin Road,10305,(718) 816-5834,New York
Staten Island,St. George Library Center,5 Central Avenue,10301,(718) 442-8560,New York
Staten Island,Stapleton Library,132 Canal St.,10304,(718) 727-0427,New York
Staten Island,Todt Hill-Westerleigh Library,2550 Victory Boulevard,10314,(718) 494-1642,New York
Staten Island,Tottenville Library,7430 Amboy Road,10307,(718) 984-0945,New York
Staten Island,West New Brighton Library,976 Castleton Avenue,10310,(718) 442-1416,New York
Stephentown,Stephentown Memorial Library,472 New York Route 43,12168,(518) 733-5750,New York
Stillwater,Stillwater Free Library,74 South Hudson Avenue,12170,(518) 664-6255,New York
Stockton,Mary E. Seymour Memorial Free Library,22 North Main Street,14784,(716) 595-3323,New York
Stone Ridge,Stone Ridge Public Library,3700 Main Street,12484,(845) 687-7023,New York
Stony Creek,Stony Creek Free Library,37 Harrisburg Road,12878,(518) 696-5911,New York
Stony Point,Rose Memorial Library Association,79 East Main Street,10980,(845) 786-2100,New York
Suffern,Suffern Free Library,210 Lafayette Ave.,10901,(845) 357-1237,New York
Syosset,Syosset Public Library,225 South Oyster Bay Road,11791,(516) 921-7161,New York
Syracuse,Beauchamp Branch,2111 S. Salina St.,13205,(315) 435-3395,New York
Syracuse,Betts Branch Library,4862 S. Salina St.,13205,(315) 435-1940,New York
Syracuse,Fairmount Community Library Assoc.,406 Chapel Drive,13219,(315) 487-8933,New York
Syracuse,Hazard Branch Library,1620 W. Genesee St.,13204,(315) 435-5326,New York
Syracuse,Mundy Branch Library,1204 S. Geddes St.,13204,(315) 435-3797,New York
Syracuse,Northeast Community Center Library,716 Hawley Ave.,13203,(315) 472-6343,New York
Syracuse,Onondaga County Public Library,447 S. Salina St.,13202,(315) 435-1900,New York
Syracuse,Onondaga County Public Library,,13202,(315) 435-1800,New York
Syracuse,Onondaga Free Library,4840 West Seneca Turnpike,13215,(315) 492-1727,New York
Syracuse,Paine Branch Library,113 Nichols Ave.,13206,(315) 435-5442,New York
Syracuse,Petit Branch Library,105 Victoria Pl.,13210,(315) 435-3636,New York
Syracuse,Robert P. Kinchen Central Library,447 South Salina St.,13202,(315) 435-1900,New York
Syracuse,Soule Branch Library,101 Springfield Rd.,13214,(315) 435-5320,New York
Syracuse,Southwest Community Center Library,401 South Ave.,13204,(315) 671-5814,New York
Syracuse,White Branch Library,763 Butternut St.,13208,(315) 435-3519,New York
Tappan,Tappan Library,93 Main Street,10983,(845) 359-3877,New York
Tarrytown,Warner Library,121 North Broadway,10591,(914) 631-7734,New York
Tarrytown,Westchester Library System,540 White Plains Road Suite 200,10591,(914) 674-3600,New York
Theresa,Theresa Free Library,301 Main Street,13691,(315) 628-5972,New York
Thousand Island Park,Thousand Island Park Library,42743 St. Lawrence Avenue,13692,(315) 482-9098,New York
Ticonderoga,"Black Watch Memorial Library, Ticonderoga",99 Montcalm Street,12883,(518) 585-7380,New York
Ticonderoga,Ticonderoga Public Library,99 Montcalm Street,12883,(518) 585-7380,New York
Tivoli,Tivoli Free Library,86 Broadway,12583,(845) 757-3771,New York
Tomkins Cove,Tomkins Cove Public Library,419 Liberty Drive North,10986,(845) 786-3060,New York
Tonawanda,City Of Tonawanda Public Library,333 Main Street,14150,(716) 693-5043,New York
Troy,Brunswick Community Library,605 Brunswick Road,12180,(518) 279-4023,New York
Troy,Troy Public Library - Lansingburgh Branch,27 114th Street,12182,(518) 235-5310,New York
Troy,Troy Public Library - Main Library,100 Second Street,12180,(518) 274-7071,New York
Troy,Troy Public Library - Sycaway Branch,,12180,(518) 274-1822,New York
Trumansburg,Ulysses Philomathic Library,74 East Main Street,14886,(607) 387-5623,New York
Tuckahoe,Tuckahoe Public Library,71 Columbus Avenue,10707,(914) 961-2121,New York
Tully,Tully Free Library,12 State Street,13159,(315) 696-8606,New York
Tupper Lake,"Goff-Nelson Memorial Library, Tupper Lake",41 Lake Street,12986,(518) 359-9421,New York
Tupper Lake,Tupper Lake Public Library,41 Lake Street,12986,(518) 359-9421,New York
Turin,B. Elizabeth Strong Memorial Library,6312 East Main Street,13473,(315) 348-6433,New York
Tuxedo Park,Tuxedo Park Library,227 Route 17,10987,(845) 351-2207,New York
Unadilla,Unadilla Public Library,193 Main Street,13849,(607) 369-3131,New York
Union Springs,Springport Free Library,171 Cayuga Street,13160,(315) 889-7766,New York
Uniondale,Nassau Library System,900 Jerusalem Ave.,11553,(516) 292-8920,New York
Uniondale,Uniondale Public Library,400 Uniondale Avenue,11553,(516) 489-2220,New York
Upper Jay,Wells Memorial Library,12230 Nys Rte 9n,12987,(518) 946-2644,New York
Upton,Brookhaven National Laboratory,P.O. Box 5000,11973,(631) 344-8000,New York
Utica,Mid-York Library System,1600 Lincoln Ave,13502,(315) 735-8328,New York
Utica,Utica Public Library,303 Genesee Street,13501,(315) 735-2279,New York
Valatie,Valatie Free Library,3203 Church Street,12184,(518) 758-9321,New York
Valley Cottage,Valley Cottage Free Library,110 Route 303,10989,(845) 268-7700,New York
Valley Falls,Valley Falls Free Library,42 State Street,12185,(518) 753-4230,New York
Valley Stream,Henry Waldinger Memorial Library,60 Verona Place,11582,(516) 825-6422,New York
Van Etten,Van Etten Library,83 Main St,14889,(607) 589-4755,New York
Vernon,Vernon Public Library,4441 Peterboro Street,13476,(315) 829-2463,New York
Vestal,Four County Library System,304 Clubhouse Road,13850,(607) 723-8236,New York
Vestal,Vestal Public Library,320 Vestal Parkway East,13850,(607) 754-4243,New York
Victor,Victor Free Library,15 West Main Street,14564,(585) 924-2637,New York
Voorheesville,Voorheesville Public Library,51 School Road,12186,(518) 765-2791,New York
Waddington,Hepburn Library Of Waddington,30 Main Street,13694,(315) 388-4454,New York
Wadhams,Wadhams Free Library,763 Nys Route 22,12993,(518) 962-8717,New York
Walden,Josephine-Louise Public Library,5 Scofield Street,12586,(845) 778-7621,New York
Wallkill,Wallkill Public Library,7 Bona Venture,12589,(845) 895-3707,New York
Walton,William B. Ogden Free Library,42 Gardiner Place,13856,(607) 865-5929,New York
Walworth,Walworth-Seely Public Library,3600 Lorraine Drive,14568,(315) 986-1511,New York
Wantagh,Wantagh Public Library,3285 Park Avenue,11793,(516) 221-1200,New York
Wappingers Falls,Grinnell Library,2642 East Main Street,12590,(845) 297-3428,New York
Warrensburg,Richards Library,36 Elm Street,12885,(518) 623-3011,New York
Warsaw,Warsaw Public Library,130 North Main Street,14569,(585) 786-5606,New York
Warwick,Albert Wisner Public Library,2 Colonial Avenue,10990,(845) 986-1047,New York
Washingtonville,Moffat Library Of Washingtonville,6 West Main Street,10992,(845) 496-5483,New York
Waterford,Waterford Public Library,117 Third Street,12188,(518) 237-0891,New York
Waterloo,Waterloo Library And Historical Society,31 East Williams Street,13165,(315) 539-3313,New York
Watertown,East Hounsfield Free Library,19438 Nys Route 3,13601,(315) 788-0637,New York
Watertown,Roswell P. Flower Memorial Library,229 Washington Street,13601,(315) 785-7705,New York
Waterville,Waterville Public Library,206 White Street,13480,(315) 841-4651,New York
Watervliet,Watervliet Public Library,1501 Broadway,12189,(518) 274-4471,New York
Watkins Glen,Watkins Glen Cen Sch Dis Free Pub Lib,610 South Decatur Street,14891,(607) 535-2346,New York
Waverly,Waverly Free Library,18 Elizabeth Street,14892,(607) 565-9341,New York
Wayland,Wayland Free Library,101 West Naples Street,14572,(585) 728-5380,New York
Webster,Webster Public Library,,14580,(585) 872-7075,New York
Weedsport,Weedsport Free Library,2795 East Brutus Street,13166,(315) 834-6222,New York
Wellsville,David A Howe Public Library,155 North Main Street,14895,(585) 593-3410,New York
West Babylon,West Babylon Public Library,211 Route 109,11704,(631) 669-5445,New York
West Chazy,Dodge Library,9 Fiske Road,12992,(518) 493-6131,New York
West Hempstead,West Hempstead Public Library,500 Hempstead Avenue,11552,(516) 481-6591,New York
West Hurley,West Hurley Public Library,42 Clover Street,12491,(845) 679-6405,New York
West Islip,West Islip Public Library,3 Higbie Lane,11795,(631) 661-7080,New York
West Nyack,West Nyack Free Library,65 Strawtown Road,10994,(845) 358-6081,New York
West Seneca,West Seneca Public Library,1300 Union Road,14224,(716) 674-2928,New York
West Shokan,Olive Free Library Association,4033 Route 28a,12494,(845) 657-2482,New York
West Winfield,West Winfield Library,179 South Street,13491,(315) 822-6394,New York
Westbury,Westbury Memorial Public Library,445 Jefferson Street,11590,(516) 333-0176,New York
Westerlo,Town Of Westerlo Public Library,604 State Route 143,12193,(518) 797-3415,New York
Westernville,Western Town Library,9172 Main Street,13486,(315) 827-4118,New York
Westfield,Patterson Library,40 South Portage Street,14787,(716) 326-2154,New York
Westhampton Beach,Westhampton Free Library,28 Library Avenue,11978,(631) 288-3335,New York
Westport,Westport Library Association,6 Harris Lane,12993,(518) 962-8219,New York
White Plains,White Plains Public Library,100 Martine Avenue,10601,(914) 422-1400,New York
Whitehall,Whitehall Free Library,12 Williams Street,12887,(518) 499-1366,New York
Whitesboro,Dunham Public Library,76 Main Street,13492,(315) 736-9734,New York
Whitestone,Queens Borough Public Library - Whitestone,151-10 14 Road,11357,(718) 767-8010,New York
Whitesville,Whitesville Public Library,500 Main Street,14897,(607) 356-3645,New York
Whitney Point,Mary Wilcox Memorial Library,2630 Main Street,13862,(607) 692-3159,New York
Williamson,Williamson Free Public Library,"6380 Route 21, Suite 1",14589,(315) 589-2048,New York
Williamstown,Williamstown Library,2877 County Route 17n,13493,(315) 964-2802,New York
Williamsville,Amherst Public Library Clearfield Branch,770 Hopkins Road,14221,(716) 688-4955,New York
Williamsville,Amherst Public Library Williamsville Branch,5571 Main Street,14221,(716) 632-6176,New York
Williston Park,Williston Park Public Library,494 Willis Avenue,11596,(516) 742-1820,New York
Willsboro,Paine Memorial Free Library,2 Gilliland Lane,12996,(518) 963-4478,New York
Wilmington,Wilmington E.M. Cooper Memorial Public Library,5751 Route 86,12997,(518) 946-7701,New York
Wilson,Wilson Free Library,265 Young Street,14172,(716) 751-6070,New York
Windham,Windham Public Library,5379 Main Street,12496,(518) 734-4405,New York
Wingdale,Dover Plains Library,1797 Route 22,12594,(845) 832-6605,New York
Wolcott,Wolcott Civic Free Library,5890 New Hartford Street,14590,(315) 594-2265,New York
Woodgate,Woodgate Free Library,11051 Woodgate Road,13494,(315) 392-4814,New York
Woodhaven,Queens Borough Public Library - Woodhaven,85-41 Forest Parkway,11421,(718) 849-1010,New York
Woodside,Queens Borough Public Library - Woodside,54-22 Skillman Avenue,11377,(718) 429-4700,New York
Woodstock,Woodstock Public Library District,5 Library Lane,12498,(845) 679-2213,New York
Worcester,Worcester Free Library,168 Main Street Suite 2,12197,(607) 397-7309,New York
Wurtsboro,Mamakating Library,156-158 Sullivan Street,12790,(845) 888-8004,New York
Wurtsboro,Town Of Mamakating Library District,156-158 Sullivan Street,12790,(845) 888-8004,New York
Wyandanch,Wyandanch Public Library,14 South 20th Street,11798,(631) 643-4848,New York
Wynantskill,North Greenbush Public Library,141 Main Avenue,12198,(518) 283-0303,New York
Wyoming,Wyoming Free Circulating Library Association,114 South Academy Street,14591,(585) 495-6840,New York
Yonkers,Yonkers Public Library,,10701,(914) 337-1500,New York
Youngstown,Youngstown Free Library,240 Lockport Street,14174,(716) 745-3555,New York
